{
"type": "FeatureCollection",
"name": "Cancun",
"crs": { "type": "name", "properties": { "name": "urn:ogc:def:crs:OGC:1.3:CRS84" } },
"features": [
{ "type": "Feature", "properties": { "id": null, "Name": null, "descriptio": null, "timestamp": null, "begin": null, "end": null, "altitudeMo": null, "tessellate": -1, "extrude": 0, "visibility": -1, "drawOrder": null, "icon": null }, "geometry": { "type": "MultiPolygon", "coordinates": [ [ [ [ -86.806508518576351, 21.177715659842669, 0.0 ], [ -86.806426802250954, 21.177749577790799, 0.0 ], [ -86.806419856061993, 21.17772552847638, 0.0 ], [ -86.806308263805178, 21.177483837975849, 0.0 ], [ -86.806270305738067, 21.177064113913229, 0.0 ], [ -86.806047215498594, 21.176573511461878, 0.0 ], [ -86.805995689857198, 21.176239791005131, 0.0 ], [ -86.805884174531826, 21.17603044966463, 0.0 ], [ -86.805868676132079, 21.17564518226277, 0.0 ], [ -86.805759246150984, 21.17540183685918, 0.0 ], [ -86.805536620181158, 21.17463097736626, 0.0 ], [ -86.80547941456696, 21.173892653296381, 0.0 ], [ -86.805190966853019, 21.173629637303151, 0.0 ], [ -86.805023421346661, 21.173399526538631, 0.0 ], [ -86.804940633576848, 21.171891163190171, 0.0 ], [ -86.804567648648472, 21.17070415463024, 0.0 ], [ -86.804423459314123, 21.17019214978896, 0.0 ], [ -86.804044077438448, 21.16881334792879, 0.0 ], [ -86.803914258233277, 21.168463767569499, 0.0 ], [ -86.803733110449031, 21.16820620486633, 0.0 ], [ -86.803380585889556, 21.167245675835659, 0.0 ], [ -86.802941015459751, 21.166892019265472, 0.0 ], [ -86.802825446899732, 21.166719181636381, 0.0 ], [ -86.802560778987115, 21.16555078251324, 0.0 ], [ -86.802206526250259, 21.162855683392571, 0.0 ], [ -86.802131236328222, 21.16268415619173, 0.0 ], [ -86.801583550236643, 21.161907832046321, 0.0 ], [ -86.801339233307345, 21.161654598487239, 0.0 ], [ -86.801243670439376, 21.161086156161669, 0.0 ], [ -86.801285291561427, 21.160813994064611, 0.0 ], [ -86.801273343847441, 21.160547865277479, 0.0 ], [ -86.801201916645468, 21.160242781393841, 0.0 ], [ -86.80100751671759, 21.159938826404829, 0.0 ], [ -86.800794265831129, 21.159446055263299, 0.0 ], [ -86.800605592145047, 21.158844491798369, 0.0 ], [ -86.800415520558474, 21.15851072539613, 0.0 ], [ -86.800343213043689, 21.158273567164279, 0.0 ], [ -86.800115828572828, 21.157768881783241, 0.0 ], [ -86.799885198594183, 21.157265985611289, 0.0 ], [ -86.799629653217295, 21.157037523279001, 0.0 ], [ -86.799543741742525, 21.156904114563599, 0.0 ], [ -86.799533763513182, 21.156911059927729, 0.0 ], [ -86.799216494707849, 21.15656961674464, 0.0 ], [ -86.799204294513785, 21.156510325185501, 0.0 ], [ -86.799032103277511, 21.156292645740951, 0.0 ], [ -86.798919287303661, 21.15613472074331, 0.0 ], [ -86.798787071757218, 21.155990408684449, 0.0 ], [ -86.798682164372238, 21.155827123009701, 0.0 ], [ -86.798584496050822, 21.155658801420639, 0.0 ], [ -86.798475773272543, 21.155498155602071, 0.0 ], [ -86.798358908788089, 21.1553432859405, 0.0 ], [ -86.798240384147974, 21.155200601192281, 0.0 ], [ -86.798114851107997, 21.155062934923489, 0.0 ], [ -86.7980794446364, 21.155020071474699, 0.0 ], [ -86.797900044715931, 21.15485281257973, 0.0 ], [ -86.797661102686618, 21.154647250451848, 0.0 ], [ -86.797511742122083, 21.15447703555467, 0.0 ], [ -86.797467135944444, 21.154440878359239, 0.0 ], [ -86.797256927374093, 21.15428836771088, 0.0 ], [ -86.797044480880658, 21.154083654608499, 0.0 ], [ -86.7969463707324, 21.153939914961949, 0.0 ], [ -86.79681483079797, 21.15381062881124, 0.0 ], [ -86.79678147398505, 21.153764350642831, 0.0 ], [ -86.796626594327364, 21.153636626415789, 0.0 ], [ -86.796508097703025, 21.153508062826621, 0.0 ], [ -86.796318219342567, 21.153304700122941, 0.0 ], [ -86.796134223681037, 21.15312390166881, 0.0 ], [ -86.796095049336557, 21.153083101255561, 0.0 ], [ -86.795991431854858, 21.152936256955041, 0.0 ], [ -86.795863546092775, 21.15277235469436, 0.0 ], [ -86.795741678681054, 21.15263135648997, 0.0 ], [ -86.795606853736615, 21.15250228670315, 0.0 ], [ -86.795463188854953, 21.152381089408792, 0.0 ], [ -86.795309069695222, 21.152269692506131, 0.0 ], [ -86.795148307839952, 21.152114983202559, 0.0 ], [ -86.79498379516528, 21.151988085451489, 0.0 ], [ -86.794699200520398, 21.151686088117, 0.0 ], [ -86.794598883227849, 21.151524559934121, 0.0 ], [ -86.794356743747883, 21.151375492132061, 0.0 ], [ -86.79410959276376, 21.1511767139332, 0.0 ], [ -86.793805555155927, 21.151003356854108, 0.0 ], [ -86.793578282082294, 21.150844293293471, 0.0 ], [ -86.793396875822452, 21.15077562332208, 0.0 ], [ -86.793031273452016, 21.1506871900202, 0.0 ], [ -86.792417319490738, 21.150493263930411, 0.0 ], [ -86.792368320729636, 21.15018960937779, 0.0 ], [ -86.792312723900537, 21.150063536279301, 0.0 ], [ -86.792207753954401, 21.149862154094858, 0.0 ], [ -86.792112718289687, 21.149708405491491, 0.0 ], [ -86.791971838168323, 21.14956235217733, 0.0 ], [ -86.791789885424194, 21.149465875952799, 0.0 ], [ -86.791445326845533, 21.14914254217225, 0.0 ], [ -86.791225294754696, 21.14888140472662, 0.0 ], [ -86.79074163124811, 21.148303935566769, 0.0 ], [ -86.790539338386083, 21.148090369230669, 0.0 ], [ -86.790176698995424, 21.147785206438439, 0.0 ], [ -86.78995884544689, 21.147697360816821, 0.0 ], [ -86.78995553203373, 21.14767620222063, 0.0 ], [ -86.789471212571115, 21.147665436681809, 0.0 ], [ -86.788817696978128, 21.1476173812915, 0.0 ], [ -86.788511404623904, 21.147382277714531, 0.0 ], [ -86.788328031739894, 21.147121569875619, 0.0 ], [ -86.788065891733055, 21.146445386686931, 0.0 ], [ -86.788023143471506, 21.14622307460295, 0.0 ], [ -86.788103021023488, 21.145914377516899, 0.0 ], [ -86.78819320093001, 21.145631197450619, 0.0 ], [ -86.788272654739501, 21.14537828010268, 0.0 ], [ -86.788284290820144, 21.145183621443849, 0.0 ], [ -86.788010400412958, 21.145242574765469, 0.0 ], [ -86.787926708556782, 21.145234860935691, 0.0 ], [ -86.788018794497816, 21.144243455567491, 0.0 ], [ -86.788025054952129, 21.144243754855889, 0.0 ], [ -86.78796281877392, 21.143869008110769, 0.0 ], [ -86.787008688464496, 21.143488805441869, 0.0 ], [ -86.787184874542405, 21.144070144529451, 0.0 ], [ -86.786845377545333, 21.144264595114851, 0.0 ], [ -86.786390944534759, 21.14446228328984, 0.0 ], [ -86.786290157286402, 21.144506022699851, 0.0 ], [ -86.785889588360021, 21.144527717217709, 0.0 ], [ -86.785799903664142, 21.144587734147422, 0.0 ], [ -86.785573053878025, 21.14473954071498, 0.0 ], [ -86.785173469507001, 21.144777450099731, 0.0 ], [ -86.785107742766385, 21.144774952451321, 0.0 ], [ -86.785013296579962, 21.14477281803731, 0.0 ], [ -86.784528137455766, 21.14475548698924, 0.0 ], [ -86.784034147551395, 21.144954047715618, 0.0 ], [ -86.783839563607529, 21.144975315296751, 0.0 ], [ -86.783635837560311, 21.144945414087641, 0.0 ], [ -86.783359777162744, 21.145025128350639, 0.0 ], [ -86.78290110705457, 21.145021419953729, 0.0 ], [ -86.782792010467617, 21.14504515117995, 0.0 ], [ -86.782287260384294, 21.145018580311291, 0.0 ], [ -86.781930360167294, 21.14523209598655, 0.0 ], [ -86.781573633947872, 21.145144005726539, 0.0 ], [ -86.781165113970815, 21.14509958785332, 0.0 ], [ -86.780722135417079, 21.145127837673758, 0.0 ], [ -86.780419285938919, 21.145301268331441, 0.0 ], [ -86.780133403106447, 21.14539183732494, 0.0 ], [ -86.779932680589681, 21.14589722246172, 0.0 ], [ -86.779632588051058, 21.145894085628171, 0.0 ], [ -86.779153006410425, 21.145631581863409, 0.0 ], [ -86.778792841437479, 21.145708822280941, 0.0 ], [ -86.778299195516396, 21.14552956701084, 0.0 ], [ -86.778097163599796, 21.145479686035412, 0.0 ], [ -86.777828258149498, 21.1454795953169, 0.0 ], [ -86.77758747721704, 21.14547951373256, 0.0 ], [ -86.77732743261501, 21.145479426243739, 0.0 ], [ -86.777190090489825, 21.14547937940009, 0.0 ], [ -86.777068290395192, 21.145419843234219, 0.0 ], [ -86.776832376549265, 21.145304529417, 0.0 ], [ -86.776405306534372, 21.145095778289011, 0.0 ], [ -86.776165981661251, 21.14497879559924, 0.0 ], [ -86.775961504706416, 21.144814106264509, 0.0 ], [ -86.775413363486891, 21.144372763943821, 0.0 ], [ -86.775209491483722, 21.144208197337921, 0.0 ], [ -86.774811365017243, 21.144164437202761, 0.0 ], [ -86.774291338615654, 21.14377452795495, 0.0 ], [ -86.773874962937484, 21.143322261520769, 0.0 ], [ -86.773302485517959, 21.143020874214219, 0.0 ], [ -86.773103368579072, 21.143002887385549, 0.0 ], [ -86.772719898145169, 21.142968246315021, 0.0 ], [ -86.772471531789066, 21.14321249554127, 0.0 ], [ -86.772350266409035, 21.143201473618252, 0.0 ], [ -86.772144946590402, 21.142924151849659, 0.0 ], [ -86.771973032557042, 21.142691949197431, 0.0 ], [ -86.771835677010657, 21.14250642388452, 0.0 ], [ -86.77169724775024, 21.142320537881929, 0.0 ], [ -86.771551493219704, 21.142177836564372, 0.0 ], [ -86.771403323333757, 21.142034170670271, 0.0 ], [ -86.771209441610225, 21.141844364943491, 0.0 ], [ -86.771040086713398, 21.14167925652152, 0.0 ], [ -86.770581041375337, 21.14109602138581, 0.0 ], [ -86.770244051613318, 21.14082012752765, 0.0 ], [ -86.770039804033047, 21.14068928270456, 0.0 ], [ -86.769727439617, 21.140374363740492, 0.0 ], [ -86.76910332649679, 21.13972744141822, 0.0 ], [ -86.768537443522717, 21.13953523874029, 0.0 ], [ -86.768565850394936, 21.139492995444549, 0.0 ], [ -86.768565850394936, 21.139492995444549, 0.0 ], [ -86.768208259734607, 21.139441766944021, 0.0 ], [ -86.767783640030544, 21.13936408006553, 0.0 ], [ -86.767543862477794, 21.1391449065693, 0.0 ], [ -86.767262720423204, 21.138962220638401, 0.0 ], [ -86.76691614050128, 21.138769016617331, 0.0 ], [ -86.766566161763549, 21.138662610031549, 0.0 ], [ -86.765335084371145, 21.138000876685311, 0.0 ], [ -86.765038509536822, 21.13785038888118, 0.0 ], [ -86.764829686632524, 21.13769755891661, 0.0 ], [ -86.764625083392346, 21.137578490029739, 0.0 ], [ -86.764417754490239, 21.137465614013369, 0.0 ], [ -86.764179531679019, 21.137408886361229, 0.0 ], [ -86.763943212366783, 21.13731610348681, 0.0 ], [ -86.763740803981023, 21.137220703162448, 0.0 ], [ -86.763520091669434, 21.13712386120044, 0.0 ], [ -86.763251395234732, 21.137123089298139, 0.0 ], [ -86.762988013345094, 21.137107865818582, 0.0 ], [ -86.76275468972311, 21.136971387005769, 0.0 ], [ -86.762546266994363, 21.13685385351247, 0.0 ], [ -86.762337617995328, 21.13678571424229, 0.0 ], [ -86.762111923621418, 21.136744721900879, 0.0 ], [ -86.761795676326656, 21.13674846447098, 0.0 ], [ -86.760751990608654, 21.13673086923443, 0.0 ], [ -86.760490483412624, 21.136661101389411, 0.0 ], [ -86.760240984942612, 21.136563227832429, 0.0 ], [ -86.760014743497337, 21.136508501822469, 0.0 ], [ -86.759784045579849, 21.136489156601598, 0.0 ], [ -86.759540382481646, 21.13650017271922, 0.0 ], [ -86.759300653976823, 21.136604933355621, 0.0 ], [ -86.759053702847766, 21.136531180805282, 0.0 ], [ -86.758813172897916, 21.136489392410009, 0.0 ], [ -86.758363741345391, 21.136443606385839, 0.0 ], [ -86.758056618719394, 21.136359848879909, 0.0 ], [ -86.757785241744742, 21.136367146865851, 0.0 ], [ -86.75755267375996, 21.13634815305856, 0.0 ], [ -86.757292223784205, 21.136342927597859, 0.0 ], [ -86.757077928721017, 21.136353708899911, 0.0 ], [ -86.756825649129013, 21.136350948383569, 0.0 ], [ -86.756594201923235, 21.13635011649237, 0.0 ], [ -86.756369708722772, 21.13632308966972, 0.0 ], [ -86.756114426657874, 21.136301708853878, 0.0 ], [ -86.755792823276693, 21.136320656627628, 0.0 ], [ -86.755433402402744, 21.136602512729201, 0.0 ], [ -86.754961974048655, 21.13669058124653, 0.0 ], [ -86.754791874961086, 21.136799133634479, 0.0 ], [ -86.754437217017554, 21.136863095438901, 0.0 ], [ -86.754103158159253, 21.136911714817181, 0.0 ], [ -86.753868690479166, 21.137089215138261, 0.0 ], [ -86.753637407149569, 21.137142614122411, 0.0 ], [ -86.753402751396891, 21.137257023059181, 0.0 ], [ -86.753354276801431, 21.137411149150989, 0.0 ], [ -86.752942131203639, 21.137601333055571, 0.0 ], [ -86.752723182097697, 21.13782575340208, 0.0 ], [ -86.752492683134221, 21.138232973389812, 0.0 ], [ -86.75241612762305, 21.138654286952931, 0.0 ], [ -86.752161142345187, 21.13889030295687, 0.0 ], [ -86.752092536540729, 21.139042167989611, 0.0 ], [ -86.751837929487081, 21.139429635174949, 0.0 ], [ -86.751565841397962, 21.139770404056229, 0.0 ], [ -86.751264071945883, 21.139877852158079, 0.0 ], [ -86.751022589083135, 21.13981120192863, 0.0 ], [ -86.750639524943409, 21.139580761703641, 0.0 ], [ -86.750440739333115, 21.139545502806438, 0.0 ], [ -86.75021990982269, 21.139561599681361, 0.0 ], [ -86.749997431505378, 21.139719489772482, 0.0 ], [ -86.74982174370588, 21.139838836329631, 0.0 ], [ -86.749666907650322, 21.139911932201549, 0.0 ], [ -86.74942700385364, 21.13989183870352, 0.0 ], [ -86.749248089121096, 21.13983815738122, 0.0 ], [ -86.748922223917546, 21.13980278658628, 0.0 ], [ -86.74855314743148, 21.13944791911052, 0.0 ], [ -86.748336389899393, 21.139232958267669, 0.0 ], [ -86.748017103233991, 21.13881609884881, 0.0 ], [ -86.747694187920615, 21.138451085306901, 0.0 ], [ -86.747234854739844, 21.137933607384699, 0.0 ], [ -86.746669175575761, 21.137398309079298, 0.0 ], [ -86.746346735998813, 21.13715661734604, 0.0 ], [ -86.746154491034005, 21.137061220562561, 0.0 ], [ -86.74603441647767, 21.13701188088146, 0.0 ], [ -86.745563167591854, 21.136881913646612, 0.0 ], [ -86.745269054125302, 21.136771188311709, 0.0 ], [ -86.744841534183905, 21.136679668918159, 0.0 ], [ -86.743935732880061, 21.136524498938702, 0.0 ], [ -86.743577839044619, 21.136390858625319, 0.0 ], [ -86.743343786693003, 21.136395575070601, 0.0 ], [ -86.743156167662022, 21.136494371863069, 0.0 ], [ -86.742928106206051, 21.136556858397132, 0.0 ], [ -86.742771700339276, 21.136624004970791, 0.0 ], [ -86.742435697460749, 21.13680022454572, 0.0 ], [ -86.742173183797917, 21.136852701995188, 0.0 ], [ -86.741955299836064, 21.136905992406589, 0.0 ], [ -86.741764358742415, 21.13694277490708, 0.0 ], [ -86.741506028647336, 21.13705371015719, 0.0 ], [ -86.741275113282413, 21.137214359738302, 0.0 ], [ -86.741069057565014, 21.137465314337689, 0.0 ], [ -86.740978371657022, 21.13759493336276, 0.0 ], [ -86.740802766155852, 21.138123071842148, 0.0 ], [ -86.740721532531182, 21.137917258771481, 0.0 ], [ -86.740818918114229, 21.137478329238281, 0.0 ], [ -86.74089536259433, 21.137159299497899, 0.0 ], [ -86.740813364656717, 21.13674800128673, 0.0 ], [ -86.740805046463393, 21.13637708876767, 0.0 ], [ -86.740816961154707, 21.136312359119032, 0.0 ], [ -86.740799405123269, 21.13553304722593, 0.0 ], [ -86.741065184298165, 21.135197707014971, 0.0 ], [ -86.741143154796106, 21.134891251210441, 0.0 ], [ -86.741436706768013, 21.135125004755601, 0.0 ], [ -86.741729592835455, 21.135079297719919, 0.0 ], [ -86.741995624023644, 21.134986009554328, 0.0 ], [ -86.742275694626031, 21.13477280940236, 0.0 ], [ -86.742586750662781, 21.13450643672784, 0.0 ], [ -86.742813630892854, 21.13442611051731, 0.0 ], [ -86.743188944515779, 21.134412568100689, 0.0 ], [ -86.74380514691866, 21.13444073177488, 0.0 ], [ -86.744070865036008, 21.134378419280711, 0.0 ], [ -86.744430905485899, 21.13423305741081, 0.0 ], [ -86.744690498555812, 21.134126775855819, 0.0 ], [ -86.744818991801907, 21.134059859474458, 0.0 ], [ -86.745046481141372, 21.13393530344085, 0.0 ], [ -86.745267443539348, 21.13380550772904, 0.0 ], [ -86.745776980318681, 21.133247411830538, 0.0 ], [ -86.745992077897895, 21.133159101406601, 0.0 ], [ -86.746097313464759, 21.133048606454981, 0.0 ], [ -86.746237055660387, 21.13292754863901, 0.0 ], [ -86.74643936812015, 21.132709444219561, 0.0 ], [ -86.746759589747342, 21.132506280709229, 0.0 ], [ -86.746923119713898, 21.132147860035921, 0.0 ], [ -86.747034199391564, 21.131949696272329, 0.0 ], [ -86.74700685785939, 21.131785434816852, 0.0 ], [ -86.747149564685984, 21.131842310900609, 0.0 ], [ -86.747356374928756, 21.13185491185833, 0.0 ], [ -86.74752097643551, 21.1317610720616, 0.0 ], [ -86.747540158543671, 21.1315812623751, 0.0 ], [ -86.74744268928103, 21.131470462579919, 0.0 ], [ -86.747859330528286, 21.131186094114621, 0.0 ], [ -86.747911389903081, 21.130919927136201, 0.0 ], [ -86.748097611183269, 21.13068537159705, 0.0 ], [ -86.748205504164858, 21.130514193303359, 0.0 ], [ -86.74846912399876, 21.13020722384362, 0.0 ], [ -86.748730558820242, 21.129850974527979, 0.0 ], [ -86.748893543676076, 21.129596794670331, 0.0 ], [ -86.749147146715259, 21.129219901365289, 0.0 ], [ -86.749412703701879, 21.128966966111069, 0.0 ], [ -86.749701500812066, 21.128656584110889, 0.0 ], [ -86.750083162167158, 21.12822695661519, 0.0 ], [ -86.750367124048879, 21.1278971931897, 0.0 ], [ -86.750616330288793, 21.127508736429618, 0.0 ], [ -86.750931981035023, 21.127017774945909, 0.0 ], [ -86.751193378725986, 21.12653112934677, 0.0 ], [ -86.751456568571314, 21.12607966485966, 0.0 ], [ -86.751563253615686, 21.12594444393984, 0.0 ], [ -86.751762290900217, 21.125593752424731, 0.0 ], [ -86.752165512042481, 21.12479437016043, 0.0 ], [ -86.752362810371096, 21.124481846008631, 0.0 ], [ -86.752726046917587, 21.123722020336011, 0.0 ], [ -86.753435231568972, 21.122419744760791, 0.0 ], [ -86.753727568460306, 21.122262359484861, 0.0 ], [ -86.753925445162096, 21.122003538930759, 0.0 ], [ -86.754159611631763, 21.12150793161317, 0.0 ], [ -86.754332015964877, 21.1213668591509, 0.0 ], [ -86.754448639658861, 21.121301974427421, 0.0 ], [ -86.754446246011142, 21.121153269922711, 0.0 ], [ -86.754401069494989, 21.121054059547159, 0.0 ], [ -86.754422697822577, 21.120986285590149, 0.0 ], [ -86.754410549189103, 21.12085984807641, 0.0 ], [ -86.754595239207021, 21.120820845090691, 0.0 ], [ -86.754816960062172, 21.12045571150329, 0.0 ], [ -86.754971432503922, 21.120351311866031, 0.0 ], [ -86.755171790936487, 21.119868914743581, 0.0 ], [ -86.755308476303625, 21.119763699296112, 0.0 ], [ -86.755505184931891, 21.119130313304609, 0.0 ], [ -86.755759098067642, 21.119023421092692, 0.0 ], [ -86.755815264009044, 21.118737513767439, 0.0 ], [ -86.756119317030652, 21.118218961775931, 0.0 ], [ -86.756305954140174, 21.11782208011407, 0.0 ], [ -86.757223152222878, 21.116225594554439, 0.0 ], [ -86.757905339017711, 21.114741567072379, 0.0 ], [ -86.758955486877767, 21.112882704546241, 0.0 ], [ -86.759061955663157, 21.11244871430161, 0.0 ], [ -86.759209838219547, 21.112288126052601, 0.0 ], [ -86.759516206230032, 21.11200740378013, 0.0 ], [ -86.760163609076599, 21.110275876875871, 0.0 ], [ -86.760400642316057, 21.109842544564358, 0.0 ], [ -86.760460834225555, 21.109486785038399, 0.0 ], [ -86.76086113128423, 21.109058434297559, 0.0 ], [ -86.761148711965092, 21.10817229984195, 0.0 ], [ -86.761402978017443, 21.107514325858251, 0.0 ], [ -86.761998829906133, 21.10618570289013, 0.0 ], [ -86.762192413867751, 21.10583848496703, 0.0 ], [ -86.762613210343247, 21.104927300253429, 0.0 ], [ -86.762990599110594, 21.10403965712575, 0.0 ], [ -86.76344331920896, 21.103018763597721, 0.0 ], [ -86.763872722070488, 21.102012944220569, 0.0 ], [ -86.76430085192419, 21.101004216547821, 0.0 ], [ -86.76472989728444, 21.099967284144601, 0.0 ], [ -86.76512965313681, 21.09894999217174, 0.0 ], [ -86.766063797696205, 21.096627863839149, 0.0 ], [ -86.76622613693084, 21.096261575067601, 0.0 ], [ -86.767420388065617, 21.093345246029781, 0.0 ], [ -86.768975087921064, 21.08951506263513, 0.0 ], [ -86.77003914684947, 21.086661955361091, 0.0 ], [ -86.771207515580343, 21.083590940283539, 0.0 ], [ -86.772184275406943, 21.080809438935251, 0.0 ], [ -86.773014338586862, 21.078556785440789, 0.0 ], [ -86.773425966627897, 21.07740436452573, 0.0 ], [ -86.77401193216366, 21.075697409140449, 0.0 ], [ -86.774851820356886, 21.073449506357139, 0.0 ], [ -86.77574716623603, 21.070769013913331, 0.0 ], [ -86.776484570978042, 21.068424205514489, 0.0 ], [ -86.777524694206249, 21.065378271991602, 0.0 ], [ -86.778434396457527, 21.062459529342551, 0.0 ], [ -86.779082773039988, 21.06043782025505, 0.0 ], [ -86.779729526938681, 21.058357891501618, 0.0 ], [ -86.780422860613896, 21.055868328485719, 0.0 ], [ -86.780900096060947, 21.05400127226757, 0.0 ], [ -86.781406300328612, 21.05170201505711, 0.0 ], [ -86.781825532950947, 21.049303217109909, 0.0 ], [ -86.782044392777735, 21.047490430099721, 0.0 ], [ -86.782185410918359, 21.04634148208623, 0.0 ], [ -86.782229784653708, 21.044414289665308, 0.0 ], [ -86.782028085116792, 21.042671197197421, 0.0 ], [ -86.781870632002722, 21.04102431186508, 0.0 ], [ -86.781445057424662, 21.03961136759353, 0.0 ], [ -86.781166388204696, 21.038826909704241, 0.0 ], [ -86.780647919150965, 21.037866744403139, 0.0 ], [ -86.780188390302683, 21.037211164884301, 0.0 ], [ -86.779104672290103, 21.0364324343847, 0.0 ], [ -86.778233076843506, 21.03614821242461, 0.0 ], [ -86.777567398265376, 21.037070496516669, 0.0 ], [ -86.777770162105313, 21.0363259736448, 0.0 ], [ -86.778131880653888, 21.035173602577231, 0.0 ], [ -86.778239495603529, 21.034746905987131, 0.0 ], [ -86.778605513341404, 21.034088255258968, 0.0 ], [ -86.778899818752308, 21.033180271623689, 0.0 ], [ -86.779385082453985, 21.032455764113301, 0.0 ], [ -86.779926417872232, 21.032236841300591, 0.0 ], [ -86.781110311317789, 21.03249140800115, 0.0 ], [ -86.782485388001973, 21.03238224793084, 0.0 ], [ -86.78390349398353, 21.03199331063643, 0.0 ], [ -86.786124001565568, 21.030971943240129, 0.0 ], [ -86.787139047936535, 21.030358225968129, 0.0 ], [ -86.78703959769912, 21.03058263308418, 0.0 ], [ -86.78697442923756, 21.03071739684345, 0.0 ], [ -86.787778550844308, 21.031634189100959, 0.0 ], [ -86.788596625632223, 21.032667026544491, 0.0 ], [ -86.789087360876266, 21.033234991334329, 0.0 ], [ -86.789522245477784, 21.033864165806261, 0.0 ], [ -86.790069459086709, 21.03469923640677, 0.0 ], [ -86.790929400111366, 21.035398254087742, 0.0 ], [ -86.791739264353339, 21.03595551831858, 0.0 ], [ -86.791904058931152, 21.036072550414719, 0.0 ], [ -86.792876780043372, 21.036309619721941, 0.0 ], [ -86.793643695253451, 21.036235665941241, 0.0 ], [ -86.794226485967386, 21.03634967178597, 0.0 ], [ -86.794682695008731, 21.036509372740269, 0.0 ], [ -86.7947438869801, 21.036926018797718, 0.0 ], [ -86.795152575437925, 21.037548509931678, 0.0 ], [ -86.795863613991088, 21.037514525189781, 0.0 ], [ -86.795772290880137, 21.037380956298119, 0.0 ], [ -86.79562100901002, 21.037174221456631, 0.0 ], [ -86.795492958716409, 21.037026719648779, 0.0 ], [ -86.795433961631332, 21.036903182498751, 0.0 ], [ -86.79540069356365, 21.036799865940679, 0.0 ], [ -86.795261954790391, 21.036682896386079, 0.0 ], [ -86.795170553478428, 21.036485413372699, 0.0 ], [ -86.795595074099282, 21.036434310644928, 0.0 ], [ -86.796150330400323, 21.036404338314512, 0.0 ], [ -86.797182535545659, 21.036358280038961, 0.0 ], [ -86.797954890039463, 21.03632397901394, 0.0 ], [ -86.798737962410584, 21.036292072555661, 0.0 ], [ -86.799517558279803, 21.036254348517929, 0.0 ], [ -86.800332456028741, 21.03620180788916, 0.0 ], [ -86.800999578732799, 21.036072423638569, 0.0 ], [ -86.801624927101628, 21.03588907591444, 0.0 ], [ -86.803191445205414, 21.035027596487492, 0.0 ], [ -86.804461135481247, 21.034329285776789, 0.0 ], [ -86.804654425987593, 21.034158075989129, 0.0 ], [ -86.805172544952171, 21.033740070411099, 0.0 ], [ -86.805599829715248, 21.03349965299288, 0.0 ], [ -86.806238494209779, 21.033037317812902, 0.0 ], [ -86.806743865659811, 21.032639396966111, 0.0 ], [ -86.807028625696944, 21.032329483870999, 0.0 ], [ -86.80743265799704, 21.031927027484141, 0.0 ], [ -86.807723695415433, 21.03165046156882, 0.0 ], [ -86.808078703708219, 21.031357612955901, 0.0 ], [ -86.808500839021221, 21.031040958157629, 0.0 ], [ -86.80882410490301, 21.030785696347781, 0.0 ], [ -86.809201128989685, 21.030416817615901, 0.0 ], [ -86.809442961071738, 21.030073646412092, 0.0 ], [ -86.809763779460781, 21.02965103204555, 0.0 ], [ -86.809974610746792, 21.02920913874728, 0.0 ], [ -86.810157041964302, 21.02880449426328, 0.0 ], [ -86.810437235844333, 21.028273668231709, 0.0 ], [ -86.810724173974037, 21.027742822091739, 0.0 ], [ -86.811008096696199, 21.02717471836176, 0.0 ], [ -86.811296643859521, 21.02666966050478, 0.0 ], [ -86.811517131327534, 21.026210192549421, 0.0 ], [ -86.811774028416039, 21.025731437455729, 0.0 ], [ -86.812020457741298, 21.025210862713781, 0.0 ], [ -86.812260065814428, 21.02476431763602, 0.0 ], [ -86.812557956133858, 21.024253132588171, 0.0 ], [ -86.812873048610498, 21.023759404583888, 0.0 ], [ -86.813177640925389, 21.02329570775224, 0.0 ], [ -86.813426213566032, 21.0228552065084, 0.0 ], [ -86.813679643752437, 21.022322393574981, 0.0 ], [ -86.813933477043022, 21.021820012530821, 0.0 ], [ -86.814217833532297, 21.02124787349943, 0.0 ], [ -86.814451479998453, 21.020701402966719, 0.0 ], [ -86.814675672386059, 21.02015683731403, 0.0 ], [ -86.814921692624409, 21.0196089518994, 0.0 ], [ -86.815157622321877, 21.018829780070941, 0.0 ], [ -86.815390547276877, 21.01850397454238, 0.0 ], [ -86.815601583853336, 21.01798608435768, 0.0 ], [ -86.815834979277739, 21.017486849471499, 0.0 ], [ -86.816166773765076, 21.016732085490059, 0.0 ], [ -86.816458885934196, 21.016121748132441, 0.0 ], [ -86.816691856699819, 21.01558729070825, 0.0 ], [ -86.816819223349569, 21.015242584287119, 0.0 ], [ -86.816976118198468, 21.014790611785621, 0.0 ], [ -86.817177599341079, 21.014169061717201, 0.0 ], [ -86.817422722986691, 21.013488230436451, 0.0 ], [ -86.817571566006649, 21.013078706917799, 0.0 ], [ -86.817726028723797, 21.01267641774454, 0.0 ], [ -86.817964437846214, 21.011950075050589, 0.0 ], [ -86.818142147662059, 21.011348512014241, 0.0 ], [ -86.818307032946961, 21.010886797151539, 0.0 ], [ -86.818520318763248, 21.01045702036274, 0.0 ], [ -86.818728163046771, 21.010022213685598, 0.0 ], [ -86.819001697961141, 21.009548596392499, 0.0 ], [ -86.81929791041604, 21.008939956542338, 0.0 ], [ -86.819632279307356, 21.00825446354861, 0.0 ], [ -86.819993809141963, 21.007336376839039, 0.0 ], [ -86.820442950765283, 21.006245385915069, 0.0 ], [ -86.820833032780811, 21.00515537960338, 0.0 ], [ -86.821253165659627, 21.004221548181189, 0.0 ], [ -86.82159387754939, 21.003153570989632, 0.0 ], [ -86.821887570714679, 21.002150798968771, 0.0 ], [ -86.822122114777912, 21.001431104531569, 0.0 ], [ -86.82245083089154, 21.000284954588452, 0.0 ], [ -86.82265742867483, 20.999417425456802, 0.0 ], [ -86.822842406628013, 20.998694244578981, 0.0 ], [ -86.823005866541877, 20.99798897676407, 0.0 ], [ -86.823082506556361, 20.997782854561279, 0.0 ], [ -86.846244753279265, 21.006295428374369, 0.0 ], [ -86.844610809607687, 21.01317463627133, 0.0 ], [ -86.842192939350255, 21.01493946414821, 0.0 ], [ -86.835531941243701, 21.084882112031931, 0.0 ], [ -86.835103230713571, 21.089382193787891, 0.0 ], [ -86.834705267891792, 21.092261125202711, 0.0 ], [ -86.834552420813651, 21.09387065783373, 0.0 ], [ -86.834318669950775, 21.09634018885496, 0.0 ], [ -86.834095457553843, 21.098660015396899, 0.0 ], [ -86.83238013791744, 21.100204030751399, 0.0 ], [ -86.837977851095602, 21.13987357873479, 0.0 ], [ -86.837977851095602, 21.13987357873479, 0.0 ], [ -86.835235927192073, 21.167512999104979, 0.0 ], [ -86.826487137528304, 21.1714062979371, 0.0 ], [ -86.819551432154967, 21.174637882260559, 0.0 ], [ -86.817014029328377, 21.176151140879249, 0.0 ], [ -86.808509139575136, 21.17713848313549, 0.0 ], [ -86.806508518576351, 21.177715659842669, 0.0 ] ] ] ] } }
]
}
