{
"type": "FeatureCollection",
"name": "Cozumel",
"crs": { "type": "name", "properties": { "name": "urn:ogc:def:crs:OGC:1.3:CRS84" } },
"features": [
{ "type": "Feature", "properties": { "id": "ID_00000", "Name": "0", "description": "<html xmlns:fo=\"http://www.w3.org/1999/XSL/Format\" xmlns:msxsl=\"urn:schemas-microsoft-com:xslt\">\n\n<head>\n\n<META http-equiv=\"Content-Type\" content=\"text/html\">\n\n<meta http-equiv=\"content-type\" content=\"text/html; charset=UTF-8\">\n\n</head>\n\n<body style=\"margin:0px 0px 0px 0px;overflow:auto;background:#FFFFFF;\">\n\n<table style=\"font-family:Arial,Verdana,Times;font-size:12px;text-align:left;width:100%;border-collapse:collapse;padding:3px 3px 3px 3px\">\n\n<tr style=\"text-align:center;font-weight:bold;background:#9CBCE2\">\n\n<td>0</td>\n\n</tr>\n\n<tr>\n\n<td>\n\n<table style=\"font-family:Arial,Verdana,Times;font-size:12px;text-align:left;width:100%;border-spacing:0px; padding:3px 3px 3px 3px\">\n\n<tr>\n\n<td>FID</td>\n\n<td>0</td>\n\n</tr>\n\n<tr bgcolor=\"#D4E4F3\">\n\n<td>Id</td>\n\n<td>0</td>\n\n</tr>\n\n</table>\n\n</td>\n\n</tr>\n\n</table>\n\n</body>\n\n</html>", "timestamp": null, "begin": null, "end": null, "altitudeMode": null, "tessellate": -1, "extrude": 0, "visibility": -1, "drawOrder": null, "icon": null, "snippet": "" }, "geometry": { "type": "MultiPolygon", "coordinates": [ [ [ [ -86.976075425522822, 20.474595919719381, 0.0 ], [ -86.976358269007534, 20.474356907257569, 0.0 ], [ -86.977751556753262, 20.47315586609243, 0.0 ], [ -86.977765406644963, 20.473143930636908, 0.0 ], [ -86.978827365114213, 20.471718656975231, 0.0 ], [ -86.9797084132029, 20.470435485494342, 0.0 ], [ -86.979866077312096, 20.470205859374008, 0.0 ], [ -86.979902789246253, 20.470152390956208, 0.0 ], [ -86.98001837624065, 20.469984042098091, 0.0 ], [ -86.980116496738361, 20.469841812545159, 0.0 ], [ -86.980259932697706, 20.46963388752992, 0.0 ], [ -86.980438507570071, 20.469375031249822, 0.0 ], [ -86.980752090496949, 20.46892046580772, 0.0 ], [ -86.980656352600079, 20.468851581138381, 0.0 ], [ -86.980335329551679, 20.468620586894911, 0.0 ], [ -86.980150995510428, 20.468487950358611, 0.0 ], [ -86.980112892845398, 20.46846053404661, 0.0 ], [ -86.979260674245936, 20.467847318716281, 0.0 ], [ -86.97906867396118, 20.467709159329161, 0.0 ], [ -86.979033056318485, 20.467683533883381, 0.0 ], [ -86.978980346419505, 20.46764560622513, 0.0 ], [ -86.978879059175256, 20.467572720228411, 0.0 ], [ -86.978848674131925, 20.467482925845541, 0.0 ], [ -86.978670625659461, 20.46695675073564, 0.0 ], [ -86.97865959806802, 20.466924165206031, 0.0 ], [ -86.978658060722026, 20.466919624852459, 0.0 ], [ -86.978511781649416, 20.46648732378419, 0.0 ], [ -86.978778082413498, 20.466088711564272, 0.0 ], [ -86.978822906961057, 20.465495488044098, 0.0 ], [ -86.978384948464196, 20.465466328448429, 0.0 ], [ -86.978217304527732, 20.46472341903403, 0.0 ], [ -86.977835151661125, 20.465135192799419, 0.0 ], [ -86.97773950591656, 20.465239944134058, 0.0 ], [ -86.977705005871869, 20.465277727548571, 0.0 ], [ -86.976647514507235, 20.466435849903132, 0.0 ], [ -86.976584968843881, 20.466504337757421, 0.0 ], [ -86.97646005645619, 20.46664113803558, 0.0 ], [ -86.97631595811238, 20.466798937732619, 0.0 ], [ -86.976156444939548, 20.466973634512371, 0.0 ], [ -86.975997987920508, 20.467147169221811, 0.0 ], [ -86.975806949444632, 20.467356394586929, 0.0 ], [ -86.975699074446268, 20.467475520255711, 0.0 ], [ -86.975422735096515, 20.467780671795602, 0.0 ], [ -86.975345328492921, 20.467861997725858, 0.0 ], [ -86.975259740248518, 20.467958235175619, 0.0 ], [ -86.975176817876445, 20.468056521331281, 0.0 ], [ -86.975096604110689, 20.468156791674129, 0.0 ], [ -86.974994883753482, 20.46829219938191, 0.0 ], [ -86.974898113759011, 20.46843079004913, 0.0 ], [ -86.974806404183909, 20.468572406514859, 0.0 ], [ -86.974749362426195, 20.46866764350991, 0.0 ], [ -86.97471986801375, 20.468716882794009, 0.0 ], [ -86.974638606530561, 20.468864054554139, 0.0 ], [ -86.97456270638807, 20.469013749739009, 0.0 ], [ -86.974457017794478, 20.469247607822659, 0.0 ], [ -86.974387090413515, 20.46942422434552, 0.0 ], [ -86.974331900109064, 20.469580774078938, 0.0 ], [ -86.974282366309254, 20.469738999613689, 0.0 ], [ -86.974238562216414, 20.469898709585831, 0.0 ], [ -86.974200524745598, 20.470059733031981, 0.0 ], [ -86.974168304861522, 20.470221879135419, 0.0 ], [ -86.974141934216405, 20.47038495873058, 0.0 ], [ -86.974121448558122, 20.470548791476379, 0.0 ], [ -86.974116078155944, 20.470599118536629, 0.0 ], [ -86.974076495884276, 20.47096956995404, 0.0 ], [ -86.974020119785521, 20.471497122135091, 0.0 ], [ -86.973923924603042, 20.47239761403657, 0.0 ], [ -86.973923924598196, 20.472397642715919, 0.0 ], [ -86.973866054059087, 20.472955347010469, 0.0 ], [ -86.973861169803428, 20.47300237930585, 0.0 ], [ -86.973846096688746, 20.473147642904848, 0.0 ], [ -86.973820725630205, 20.473392142663631, 0.0 ], [ -86.973789088483741, 20.47369704623857, 0.0 ], [ -86.975956155534902, 20.47454903073416, 0.0 ], [ -86.976075425522822, 20.474595919719381, 0.0 ] ] ] ] } }
]
}
