{
"type": "FeatureCollection",
"name": "Litibu",
"crs": { "type": "name", "properties": { "name": "urn:ogc:def:crs:OGC:1.3:CRS84" } },
"features": [
{ "type": "Feature", "properties": { "id": null, "Name": "Poli_Litubu", "description": "a", "timestamp": null, "begin": null, "end": null, "altitudeMode": null, "tessellate": 1, "extrude": 0, "visibility": -1, "drawOrder": null, "icon": null }, "geometry": { "type": "Polygon", "coordinates": [ [ [ -105.493923245983595, 20.787385900842729, 0.0 ], [ -105.491126815270505, 20.785286525480799, 0.0 ], [ -105.486219334781893, 20.78821094068784, 0.0 ], [ -105.484608886781203, 20.789147777688761, 0.0 ], [ -105.483862650767705, 20.78957764600441, 0.0 ], [ -105.483150466680399, 20.78984865276054, 0.0 ], [ -105.482653008286405, 20.79003935976187, 0.0 ], [ -105.481539329721599, 20.79032560229539, 0.0 ], [ -105.480938084795298, 20.790436003480188, 0.0 ], [ -105.479592860443901, 20.791125523942188, 0.0 ], [ -105.477029672749595, 20.794296770272421, 0.0 ], [ -105.476417111939597, 20.795044937293071, 0.0 ], [ -105.475288255254299, 20.79644970793888, 0.0 ], [ -105.474414900770796, 20.797784632992521, 0.0 ], [ -105.473924679971802, 20.79909112675119, 0.0 ], [ -105.475293290866006, 20.799458873579852, 0.0 ], [ -105.476209503834596, 20.799887178771058, 0.0 ], [ -105.477697532430597, 20.80076679105105, 0.0 ], [ -105.479470315645997, 20.802034332826061, 0.0 ], [ -105.480435799842894, 20.802782815897441, 0.0 ], [ -105.481519037899503, 20.80346350163569, 0.0 ], [ -105.481701571832701, 20.803587298448939, 0.0 ], [ -105.4819020015874, 20.803731170183529, 0.0 ], [ -105.482335075336195, 20.804049026320719, 0.0 ], [ -105.482646463533797, 20.803935272457391, 0.0 ], [ -105.483627976581701, 20.80200565120759, 0.0 ], [ -105.484087598998599, 20.801120316251989, 0.0 ], [ -105.484155601520797, 20.801053400175402, 0.0 ], [ -105.484288026719796, 20.800698745385279, 0.0 ], [ -105.484445505131006, 20.80046453961058, 0.0 ], [ -105.484556455284505, 20.80022364236908, 0.0 ], [ -105.484903721941293, 20.799683259454589, 0.0 ], [ -105.485027028835702, 20.79940265283026, 0.0 ], [ -105.485087871968602, 20.799329045060109, 0.0 ], [ -105.485102187539496, 20.799248745984261, 0.0 ], [ -105.4852596630557, 20.79900450227677, 0.0 ], [ -105.485559355897806, 20.79844227664352, 0.0 ], [ -105.486089950773106, 20.797727107421391, 0.0 ], [ -105.486243843769302, 20.797432674733539, 0.0 ], [ -105.486369106068096, 20.797272074815108, 0.0 ], [ -105.4865230016959, 20.79721854000131, 0.0 ], [ -105.486637525721207, 20.797014444982651, 0.0 ], [ -105.486701944831594, 20.796870574992759, 0.0 ], [ -105.486956767579201, 20.79665309452767, 0.0 ], [ -105.487174222309307, 20.79623494700661, 0.0 ], [ -105.487210011393898, 20.796208180033879, 0.0 ], [ -105.487791721526605, 20.795471805052639, 0.0 ], [ -105.488038664391595, 20.7953011641827, 0.0 ], [ -105.488987549717805, 20.79415319763196, 0.0 ], [ -105.491820124879993, 20.791191501443041, 0.0 ], [ -105.494152162062704, 20.7891367722703, 0.0 ], [ -105.493236013270405, 20.78785435192998, 0.0 ], [ -105.493923245983595, 20.787385900842729, 0.0 ] ] ] } }
]
}
