{
"type": "FeatureCollection",
"name": "Estaciones",
"crs": { "type": "name", "properties": { "name": "urn:ogc:def:crs:OGC:1.3:CRS84" } },
"features": [
{ "type": "Feature", "properties": { "id": "1", "Name": "Palenque", "description": null, "timestamp": null, "begin": null, "end": null, "altitudeMode": null, "tessellate": -1, "extrude": 0, "visibility": -1, "drawOrder": null, "icon": null, "TIPO": "Estación", "TRAMO": "1", "DEMANDA": "Intermedia", "ESQ_DE_VIA": "Fondo de saco. 2 vías + 1 andén", "ESTADO": "Chiapas", "MUNICIPIO": "Palenque", "SUP_HA": 199.3, "NOM_OF": "Palenque", "FUCIONAMI": "En Operación", "auxiliary_": -92.418186223766128, "auxiliar_1": 17.519373434142004, "auxiliary_storage_labeling_positionx": null, "auxiliary_storage_labeling_positiony": null, "auxiliary_storage_labeling_labelrotation": null, "auxiliary_storage_labeling_family": null, "auxiliary_storage_labeling_fontstyle": null, "auxiliary_storage_labeling_size": null, "auxiliary_storage_labeling_bold": null, "auxiliary_storage_labeling_italic": null, "auxiliary_storage_labeling_underline": null, "auxiliary_storage_labeling_color": null, "auxiliary_storage_labeling_strikeout": null, "auxiliary_storage_labeling_multilinealignment": null, "auxiliary_storage_labeling_buffersize": null, "auxiliary_storage_labeling_buffercolor": null, "auxiliary_storage_labeling_bufferdraw": null, "auxiliary_storage_labeling_labeldistance": null, "auxiliary_storage_labeling_hali": null, "auxiliary_storage_labeling_vali": null, "auxiliary_storage_labeling_scalevisibility": null, "auxiliary_storage_labeling_minscale": null, "auxiliary_storage_labeling_maxscale": null, "auxiliary_storage_labeling_alwaysshow": null, "auxiliary_storage_labeling_calloutdraw": null, "auxiliary_storage_labeling_labelallparts": null, "auxiliary_storage_labeling_show": null }, "geometry": { "type": "Point", "coordinates": [ -91.979310053171417, 17.533387499818801, 0.0 ] } },
{ "type": "Feature", "properties": { "id": "3", "Name": "Tenosique", "description": null, "timestamp": null, "begin": null, "end": null, "altitudeMode": null, "tessellate": -1, "extrude": 0, "visibility": -1, "drawOrder": null, "icon": null, "TIPO": "Paradero", "TRAMO": "1", "DEMANDA": "Baja", "ESQ_DE_VIA": "2 vías + 1 andén. Viaducto", "ESTADO": "Tabasco", "MUNICIPIO": "Tenosique", "SUP_HA": 0.3, "NOM_OF": "Tenosique", "FUCIONAMI": "En Operación", "auxiliary_": -91.353336769114478, "auxiliar_1": 17.438481455332809, "auxiliary_storage_labeling_positionx": null, "auxiliary_storage_labeling_positiony": null, "auxiliary_storage_labeling_labelrotation": null, "auxiliary_storage_labeling_family": null, "auxiliary_storage_labeling_fontstyle": null, "auxiliary_storage_labeling_size": null, "auxiliary_storage_labeling_bold": null, "auxiliary_storage_labeling_italic": null, "auxiliary_storage_labeling_underline": null, "auxiliary_storage_labeling_color": null, "auxiliary_storage_labeling_strikeout": null, "auxiliary_storage_labeling_multilinealignment": null, "auxiliary_storage_labeling_buffersize": null, "auxiliary_storage_labeling_buffercolor": null, "auxiliary_storage_labeling_bufferdraw": null, "auxiliary_storage_labeling_labeldistance": null, "auxiliary_storage_labeling_hali": null, "auxiliary_storage_labeling_vali": null, "auxiliary_storage_labeling_scalevisibility": null, "auxiliary_storage_labeling_minscale": null, "auxiliary_storage_labeling_maxscale": null, "auxiliary_storage_labeling_alwaysshow": null, "auxiliary_storage_labeling_calloutdraw": null, "auxiliary_storage_labeling_labelallparts": null, "auxiliary_storage_labeling_show": null }, "geometry": { "type": "Point", "coordinates": [ -91.43061718204558, 17.460457212862899, 0.0 ] } },
{ "type": "Feature", "properties": { "id": "4", "Name": "El Triunfo", "description": null, "timestamp": null, "begin": null, "end": null, "altitudeMode": null, "tessellate": -1, "extrude": 0, "visibility": -1, "drawOrder": null, "icon": null, "TIPO": "Estación", "TRAMO": "1", "DEMANDA": "Baja", "ESQ_DE_VIA": "3 vías + 2 andenes", "ESTADO": "Tabasco", "MUNICIPIO": "Balancán", "SUP_HA": 1.1, "NOM_OF": "El Triunfo", "FUCIONAMI": "En Operación", "auxiliary_": -91.602874650255131, "auxiliar_1": 17.920856690729153, "auxiliary_storage_labeling_positionx": null, "auxiliary_storage_labeling_positiony": null, "auxiliary_storage_labeling_labelrotation": null, "auxiliary_storage_labeling_family": null, "auxiliary_storage_labeling_fontstyle": null, "auxiliary_storage_labeling_size": null, "auxiliary_storage_labeling_bold": null, "auxiliary_storage_labeling_italic": null, "auxiliary_storage_labeling_underline": null, "auxiliary_storage_labeling_color": null, "auxiliary_storage_labeling_strikeout": null, "auxiliary_storage_labeling_multilinealignment": null, "auxiliary_storage_labeling_buffersize": null, "auxiliary_storage_labeling_buffercolor": null, "auxiliary_storage_labeling_bufferdraw": null, "auxiliary_storage_labeling_labeldistance": null, "auxiliary_storage_labeling_hali": null, "auxiliary_storage_labeling_vali": null, "auxiliary_storage_labeling_scalevisibility": null, "auxiliary_storage_labeling_minscale": null, "auxiliary_storage_labeling_maxscale": null, "auxiliary_storage_labeling_alwaysshow": null, "auxiliary_storage_labeling_calloutdraw": null, "auxiliary_storage_labeling_labelallparts": null, "auxiliary_storage_labeling_show": null }, "geometry": { "type": "Point", "coordinates": [ -91.171402422366114, 17.923220557453899, 0.0 ] } },
{ "type": "Feature", "properties": { "id": "5", "Name": "Candelaria", "description": null, "timestamp": null, "begin": null, "end": null, "altitudeMode": null, "tessellate": -1, "extrude": 0, "visibility": -1, "drawOrder": null, "icon": null, "TIPO": "Paradero", "TRAMO": "1", "DEMANDA": "Baja", "ESQ_DE_VIA": "2 vías + 1 andén. Viaducto", "ESTADO": "Campeche", "MUNICIPIO": "Candelaria", "SUP_HA": 0.6, "NOM_OF": "Candelaria", "FUCIONAMI": "En Operación", "auxiliary_": -90.983887639295077, "auxiliar_1": 18.137502864070917, "auxiliary_storage_labeling_positionx": null, "auxiliary_storage_labeling_positiony": null, "auxiliary_storage_labeling_labelrotation": null, "auxiliary_storage_labeling_family": null, "auxiliary_storage_labeling_fontstyle": null, "auxiliary_storage_labeling_size": null, "auxiliary_storage_labeling_bold": null, "auxiliary_storage_labeling_italic": null, "auxiliary_storage_labeling_underline": null, "auxiliary_storage_labeling_color": null, "auxiliary_storage_labeling_strikeout": null, "auxiliary_storage_labeling_multilinealignment": null, "auxiliary_storage_labeling_buffersize": null, "auxiliary_storage_labeling_buffercolor": null, "auxiliary_storage_labeling_bufferdraw": null, "auxiliary_storage_labeling_labeldistance": null, "auxiliary_storage_labeling_hali": null, "auxiliary_storage_labeling_vali": null, "auxiliary_storage_labeling_scalevisibility": null, "auxiliary_storage_labeling_minscale": null, "auxiliary_storage_labeling_maxscale": null, "auxiliary_storage_labeling_alwaysshow": null, "auxiliary_storage_labeling_calloutdraw": null, "auxiliary_storage_labeling_labelallparts": null, "auxiliary_storage_labeling_show": null }, "geometry": { "type": "Point", "coordinates": [ -91.0444726514487, 18.184251543928099, 0.0 ] } },
{ "type": "Feature", "properties": { "id": "6", "Name": "Escárcega", "description": null, "timestamp": null, "begin": null, "end": null, "altitudeMode": null, "tessellate": -1, "extrude": 0, "visibility": -1, "drawOrder": null, "icon": null, "TIPO": "Estación", "TRAMO": "1", "DEMANDA": "Intermedia", "ESQ_DE_VIA": "3 vías + 2 andenes", "ESTADO": "Campeche", "MUNICIPIO": "Escárcega", "SUP_HA": 9.2, "NOM_OF": "Escárcega", "FUCIONAMI": "En Operación", "auxiliary_": -91.157600277722537, "auxiliar_1": 18.703458524748225, "auxiliary_storage_labeling_positionx": null, "auxiliary_storage_labeling_positiony": null, "auxiliary_storage_labeling_labelrotation": null, "auxiliary_storage_labeling_family": null, "auxiliary_storage_labeling_fontstyle": null, "auxiliary_storage_labeling_size": null, "auxiliary_storage_labeling_bold": null, "auxiliary_storage_labeling_italic": null, "auxiliary_storage_labeling_underline": null, "auxiliary_storage_labeling_color": null, "auxiliary_storage_labeling_strikeout": null, "auxiliary_storage_labeling_multilinealignment": null, "auxiliary_storage_labeling_buffersize": null, "auxiliary_storage_labeling_buffercolor": null, "auxiliary_storage_labeling_bufferdraw": null, "auxiliary_storage_labeling_labeldistance": null, "auxiliary_storage_labeling_hali": null, "auxiliary_storage_labeling_vali": null, "auxiliary_storage_labeling_scalevisibility": null, "auxiliary_storage_labeling_minscale": null, "auxiliary_storage_labeling_maxscale": null, "auxiliary_storage_labeling_alwaysshow": null, "auxiliary_storage_labeling_calloutdraw": null, "auxiliary_storage_labeling_labelallparts": null, "auxiliary_storage_labeling_show": null }, "geometry": { "type": "Point", "coordinates": [ -90.731619134854597, 18.612648041617899, 0.0 ] } },
{ "type": "Feature", "properties": { "id": "7", "Name": "Carrillo Puerto", "description": null, "timestamp": null, "begin": null, "end": null, "altitudeMode": null, "tessellate": -1, "extrude": 0, "visibility": -1, "drawOrder": null, "icon": null, "TIPO": "Paradero", "TRAMO": "2", "DEMANDA": "Baja", "ESQ_DE_VIA": "2 vías + 1 andén", "ESTADO": "Campeche", "MUNICIPIO": "Champotón", "SUP_HA": 0.2, "NOM_OF": "Carrillo Puerto-Champotón", "FUCIONAMI": "En Operación", "auxiliary_": -91.29311952871619, "auxiliar_1": 19.109790237694117, "auxiliary_storage_labeling_positionx": null, "auxiliary_storage_labeling_positiony": null, "auxiliary_storage_labeling_labelrotation": null, "auxiliary_storage_labeling_family": null, "auxiliary_storage_labeling_fontstyle": null, "auxiliary_storage_labeling_size": null, "auxiliary_storage_labeling_bold": null, "auxiliary_storage_labeling_italic": null, "auxiliary_storage_labeling_underline": null, "auxiliary_storage_labeling_color": null, "auxiliary_storage_labeling_strikeout": null, "auxiliary_storage_labeling_multilinealignment": null, "auxiliary_storage_labeling_buffersize": null, "auxiliary_storage_labeling_buffercolor": null, "auxiliary_storage_labeling_bufferdraw": null, "auxiliary_storage_labeling_labeldistance": null, "auxiliary_storage_labeling_hali": null, "auxiliary_storage_labeling_vali": null, "auxiliary_storage_labeling_scalevisibility": null, "auxiliary_storage_labeling_minscale": null, "auxiliary_storage_labeling_maxscale": null, "auxiliary_storage_labeling_alwaysshow": null, "auxiliary_storage_labeling_calloutdraw": null, "auxiliary_storage_labeling_labelallparts": null, "auxiliary_storage_labeling_show": null }, "geometry": { "type": "Point", "coordinates": [ -90.523083389136005, 19.0927199243439, 0.0 ] } },
{ "type": "Feature", "properties": { "id": "8", "Name": "Edzná", "description": null, "timestamp": null, "begin": null, "end": null, "altitudeMode": null, "tessellate": -1, "extrude": 0, "visibility": -1, "drawOrder": null, "icon": null, "TIPO": "Estación", "TRAMO": "2", "DEMANDA": "Baja", "ESQ_DE_VIA": "3 vías + 2 andenes", "ESTADO": "Campeche", "MUNICIPIO": "Campeche", "SUP_HA": 5.0, "NOM_OF": "Edzná", "FUCIONAMI": "En Operación", "auxiliary_": -90.293305615412379, "auxiliar_1": 19.543507384179144, "auxiliary_storage_labeling_positionx": null, "auxiliary_storage_labeling_positiony": null, "auxiliary_storage_labeling_labelrotation": null, "auxiliary_storage_labeling_family": null, "auxiliary_storage_labeling_fontstyle": null, "auxiliary_storage_labeling_size": null, "auxiliary_storage_labeling_bold": null, "auxiliary_storage_labeling_italic": null, "auxiliary_storage_labeling_underline": null, "auxiliary_storage_labeling_color": null, "auxiliary_storage_labeling_strikeout": null, "auxiliary_storage_labeling_multilinealignment": null, "auxiliary_storage_labeling_buffersize": null, "auxiliary_storage_labeling_buffercolor": null, "auxiliary_storage_labeling_bufferdraw": null, "auxiliary_storage_labeling_labeldistance": null, "auxiliary_storage_labeling_hali": null, "auxiliary_storage_labeling_vali": null, "auxiliary_storage_labeling_scalevisibility": null, "auxiliary_storage_labeling_minscale": null, "auxiliary_storage_labeling_maxscale": null, "auxiliary_storage_labeling_alwaysshow": null, "auxiliary_storage_labeling_calloutdraw": null, "auxiliary_storage_labeling_labelallparts": null, "auxiliary_storage_labeling_show": null }, "geometry": { "type": "Point", "coordinates": [ -90.369356690719997, 19.592383131232602, 0.0 ] } },
{ "type": "Feature", "properties": { "id": "9", "Name": "S.F. de Campeche", "description": null, "timestamp": null, "begin": null, "end": null, "altitudeMode": null, "tessellate": -1, "extrude": 0, "visibility": -1, "drawOrder": null, "icon": null, "TIPO": "Estación", "TRAMO": "2", "DEMANDA": "Intermedia", "ESQ_DE_VIA": "3 vías + 2 andenes", "ESTADO": "Campeche", "MUNICIPIO": "Campeche", "SUP_HA": 10.2, "NOM_OF": "San Francisco de Campeche", "FUCIONAMI": "En Operación", "auxiliary_": -91.167819398700132, "auxiliar_1": 19.866459606534153, "auxiliary_storage_labeling_positionx": null, "auxiliary_storage_labeling_positiony": null, "auxiliary_storage_labeling_labelrotation": null, "auxiliary_storage_labeling_family": null, "auxiliary_storage_labeling_fontstyle": null, "auxiliary_storage_labeling_size": null, "auxiliary_storage_labeling_bold": null, "auxiliary_storage_labeling_italic": null, "auxiliary_storage_labeling_underline": null, "auxiliary_storage_labeling_color": null, "auxiliary_storage_labeling_strikeout": null, "auxiliary_storage_labeling_multilinealignment": null, "auxiliary_storage_labeling_buffersize": null, "auxiliary_storage_labeling_buffercolor": null, "auxiliary_storage_labeling_bufferdraw": null, "auxiliary_storage_labeling_labeldistance": null, "auxiliary_storage_labeling_hali": null, "auxiliary_storage_labeling_vali": null, "auxiliary_storage_labeling_scalevisibility": null, "auxiliary_storage_labeling_minscale": null, "auxiliary_storage_labeling_maxscale": null, "auxiliary_storage_labeling_alwaysshow": null, "auxiliary_storage_labeling_calloutdraw": null, "auxiliary_storage_labeling_labelallparts": null, "auxiliary_storage_labeling_show": null }, "geometry": { "type": "Point", "coordinates": [ -90.476780703056605, 19.8226111927763, 0.0 ] } },
{ "type": "Feature", "properties": { "id": "10", "Name": "Tenabo", "description": null, "timestamp": null, "begin": null, "end": null, "altitudeMode": null, "tessellate": -1, "extrude": 0, "visibility": -1, "drawOrder": null, "icon": null, "TIPO": "Paradero", "TRAMO": "2", "DEMANDA": "Baja", "ESQ_DE_VIA": "3 vías + 2 andenes", "ESTADO": "Campeche", "MUNICIPIO": "Tenabo", "SUP_HA": 0.7, "NOM_OF": "Tenabo", "FUCIONAMI": "En Operación", "auxiliary_": -90.186715376492486, "auxiliar_1": 19.997105886159808, "auxiliary_storage_labeling_positionx": null, "auxiliary_storage_labeling_positiony": null, "auxiliary_storage_labeling_labelrotation": null, "auxiliary_storage_labeling_family": null, "auxiliary_storage_labeling_fontstyle": null, "auxiliary_storage_labeling_size": null, "auxiliary_storage_labeling_bold": null, "auxiliary_storage_labeling_italic": null, "auxiliary_storage_labeling_underline": null, "auxiliary_storage_labeling_color": null, "auxiliary_storage_labeling_strikeout": null, "auxiliary_storage_labeling_multilinealignment": null, "auxiliary_storage_labeling_buffersize": null, "auxiliary_storage_labeling_buffercolor": null, "auxiliary_storage_labeling_bufferdraw": null, "auxiliary_storage_labeling_labeldistance": null, "auxiliary_storage_labeling_hali": null, "auxiliary_storage_labeling_vali": null, "auxiliary_storage_labeling_scalevisibility": null, "auxiliary_storage_labeling_minscale": null, "auxiliary_storage_labeling_maxscale": null, "auxiliary_storage_labeling_alwaysshow": null, "auxiliary_storage_labeling_calloutdraw": null, "auxiliary_storage_labeling_labelallparts": null, "auxiliary_storage_labeling_show": null }, "geometry": { "type": "Point", "coordinates": [ -90.24371488738521, 20.0406519552572, 0.0 ] } },
{ "type": "Feature", "properties": { "id": "11", "Name": "Hecelchakán", "description": null, "timestamp": null, "begin": null, "end": null, "altitudeMode": null, "tessellate": -1, "extrude": 0, "visibility": -1, "drawOrder": null, "icon": null, "TIPO": "Paradero", "TRAMO": "2", "DEMANDA": "Baja", "ESQ_DE_VIA": "3 vías + 2 andenes", "ESTADO": "Campeche", "MUNICIPIO": "Hecelchakán", "SUP_HA": 5.5, "NOM_OF": "Hecelchakán", "FUCIONAMI": "En Operación", "auxiliary_": -90.684243753169426, "auxiliar_1": 20.190737524312244, "auxiliary_storage_labeling_positionx": null, "auxiliary_storage_labeling_positiony": null, "auxiliary_storage_labeling_labelrotation": null, "auxiliary_storage_labeling_family": null, "auxiliary_storage_labeling_fontstyle": null, "auxiliary_storage_labeling_size": null, "auxiliary_storage_labeling_bold": null, "auxiliary_storage_labeling_italic": null, "auxiliary_storage_labeling_underline": null, "auxiliary_storage_labeling_color": null, "auxiliary_storage_labeling_strikeout": null, "auxiliary_storage_labeling_multilinealignment": null, "auxiliary_storage_labeling_buffersize": null, "auxiliary_storage_labeling_buffercolor": null, "auxiliary_storage_labeling_bufferdraw": null, "auxiliary_storage_labeling_labeldistance": null, "auxiliary_storage_labeling_hali": null, "auxiliary_storage_labeling_vali": null, "auxiliary_storage_labeling_scalevisibility": null, "auxiliary_storage_labeling_minscale": null, "auxiliary_storage_labeling_maxscale": null, "auxiliary_storage_labeling_alwaysshow": null, "auxiliary_storage_labeling_calloutdraw": null, "auxiliary_storage_labeling_labelallparts": null, "auxiliary_storage_labeling_show": null }, "geometry": { "type": "Point", "coordinates": [ -90.152176356401398, 20.1749012712556, 0.0 ] } },
{ "type": "Feature", "properties": { "id": "12", "Name": "Calkiní", "description": null, "timestamp": null, "begin": null, "end": null, "altitudeMode": null, "tessellate": -1, "extrude": 0, "visibility": -1, "drawOrder": null, "icon": null, "TIPO": "Paradero", "TRAMO": "3", "DEMANDA": "Baja", "ESQ_DE_VIA": "3 vías + 2 andenes", "ESTADO": "Yucatán", "MUNICIPIO": "Calkiní", "SUP_HA": 1.8, "NOM_OF": "Calkiní", "FUCIONAMI": "En Operación", "auxiliary_": -90.377032573071929, "auxiliar_1": 20.371319332820175, "auxiliary_storage_labeling_positionx": null, "auxiliary_storage_labeling_positiony": null, "auxiliary_storage_labeling_labelrotation": null, "auxiliary_storage_labeling_family": null, "auxiliary_storage_labeling_fontstyle": null, "auxiliary_storage_labeling_size": null, "auxiliary_storage_labeling_bold": null, "auxiliary_storage_labeling_italic": null, "auxiliary_storage_labeling_underline": null, "auxiliary_storage_labeling_color": null, "auxiliary_storage_labeling_strikeout": null, "auxiliary_storage_labeling_multilinealignment": null, "auxiliary_storage_labeling_buffersize": null, "auxiliary_storage_labeling_buffercolor": null, "auxiliary_storage_labeling_bufferdraw": null, "auxiliary_storage_labeling_labeldistance": null, "auxiliary_storage_labeling_hali": null, "auxiliary_storage_labeling_vali": null, "auxiliary_storage_labeling_scalevisibility": null, "auxiliary_storage_labeling_minscale": null, "auxiliary_storage_labeling_maxscale": null, "auxiliary_storage_labeling_alwaysshow": null, "auxiliary_storage_labeling_calloutdraw": null, "auxiliary_storage_labeling_labelallparts": null, "auxiliary_storage_labeling_show": null }, "geometry": { "type": "Point", "coordinates": [ -90.067830964477281, 20.377113857704, 0.0 ] } },
{ "type": "Feature", "properties": { "id": "34", "Name": "Centenario", "description": null, "timestamp": null, "begin": null, "end": null, "altitudeMode": null, "tessellate": -1, "extrude": 0, "visibility": -1, "drawOrder": null, "icon": null, "TIPO": "Paradero", "TRAMO": "7", "DEMANDA": "Baja", "ESQ_DE_VIA": "3 vías + 2 andenes", "ESTADO": "Campeche", "MUNICIPIO": "Escárcega", "SUP_HA": 2.6, "NOM_OF": "Centenario", "FUCIONAMI": null, "auxiliary_": -90.326495417555876, "auxiliar_1": 18.70858641057151, "auxiliary_storage_labeling_positionx": null, "auxiliary_storage_labeling_positiony": null, "auxiliary_storage_labeling_labelrotation": null, "auxiliary_storage_labeling_family": null, "auxiliary_storage_labeling_fontstyle": null, "auxiliary_storage_labeling_size": null, "auxiliary_storage_labeling_bold": null, "auxiliary_storage_labeling_italic": null, "auxiliary_storage_labeling_underline": null, "auxiliary_storage_labeling_color": null, "auxiliary_storage_labeling_strikeout": null, "auxiliary_storage_labeling_multilinealignment": null, "auxiliary_storage_labeling_buffersize": null, "auxiliary_storage_labeling_buffercolor": null, "auxiliary_storage_labeling_bufferdraw": null, "auxiliary_storage_labeling_labeldistance": null, "auxiliary_storage_labeling_hali": null, "auxiliary_storage_labeling_vali": null, "auxiliary_storage_labeling_scalevisibility": null, "auxiliary_storage_labeling_minscale": null, "auxiliary_storage_labeling_maxscale": null, "auxiliary_storage_labeling_alwaysshow": null, "auxiliary_storage_labeling_calloutdraw": null, "auxiliary_storage_labeling_labelallparts": null, "auxiliary_storage_labeling_show": null }, "geometry": { "type": "Point", "coordinates": [ -90.285946947553299, 18.655868276030599, 0.0 ] } },
{ "type": "Feature", "properties": { "id": "2", "Name": "Boca del Cerro", "description": null, "timestamp": null, "begin": null, "end": null, "altitudeMode": null, "tessellate": -1, "extrude": 0, "visibility": -1, "drawOrder": null, "icon": null, "TIPO": "Estación", "TRAMO": "1", "DEMANDA": "Baja", "ESQ_DE_VIA": "3 vías + 2 andenes", "ESTADO": "Tabasco", "MUNICIPIO": "Tenosique", "SUP_HA": 0.5, "NOM_OF": "Boca del Cerro", "FUCIONAMI": "En Operación", "auxiliary_": -91.791372658503818, "auxiliar_1": 17.322096439065437, "auxiliary_storage_labeling_positionx": null, "auxiliary_storage_labeling_positiony": null, "auxiliary_storage_labeling_labelrotation": null, "auxiliary_storage_labeling_family": null, "auxiliary_storage_labeling_fontstyle": null, "auxiliary_storage_labeling_size": null, "auxiliary_storage_labeling_bold": null, "auxiliary_storage_labeling_italic": null, "auxiliary_storage_labeling_underline": null, "auxiliary_storage_labeling_color": null, "auxiliary_storage_labeling_strikeout": null, "auxiliary_storage_labeling_multilinealignment": null, "auxiliary_storage_labeling_buffersize": null, "auxiliary_storage_labeling_buffercolor": null, "auxiliary_storage_labeling_bufferdraw": null, "auxiliary_storage_labeling_labeldistance": null, "auxiliary_storage_labeling_hali": null, "auxiliary_storage_labeling_vali": null, "auxiliary_storage_labeling_scalevisibility": null, "auxiliary_storage_labeling_minscale": null, "auxiliary_storage_labeling_maxscale": null, "auxiliary_storage_labeling_alwaysshow": null, "auxiliary_storage_labeling_calloutdraw": null, "auxiliary_storage_labeling_labelallparts": null, "auxiliary_storage_labeling_show": null }, "geometry": { "type": "Point", "coordinates": [ -91.496330930387501, 17.430408915, 0.0 ] } },
{ "type": "Feature", "properties": { "id": "13", "Name": "Maxcanú", "description": null, "timestamp": null, "begin": null, "end": null, "altitudeMode": null, "tessellate": -1, "extrude": 0, "visibility": -1, "drawOrder": null, "icon": null, "TIPO": "Paradero", "TRAMO": "3", "DEMANDA": "Baja", "ESQ_DE_VIA": "3 vías + 2 andenes", "ESTADO": "Yucatán", "MUNICIPIO": "Maxcanú", "SUP_HA": 6.1, "NOM_OF": "Maxcanú", "FUCIONAMI": "En Operación", "auxiliary_": -90.364267432339588, "auxiliar_1": 20.61656122096667, "auxiliary_storage_labeling_positionx": null, "auxiliary_storage_labeling_positiony": null, "auxiliary_storage_labeling_labelrotation": null, "auxiliary_storage_labeling_family": null, "auxiliary_storage_labeling_fontstyle": null, "auxiliary_storage_labeling_size": null, "auxiliary_storage_labeling_bold": null, "auxiliary_storage_labeling_italic": null, "auxiliary_storage_labeling_underline": null, "auxiliary_storage_labeling_color": null, "auxiliary_storage_labeling_strikeout": null, "auxiliary_storage_labeling_multilinealignment": null, "auxiliary_storage_labeling_buffersize": null, "auxiliary_storage_labeling_buffercolor": null, "auxiliary_storage_labeling_bufferdraw": null, "auxiliary_storage_labeling_labeldistance": null, "auxiliary_storage_labeling_hali": null, "auxiliary_storage_labeling_vali": null, "auxiliary_storage_labeling_scalevisibility": null, "auxiliary_storage_labeling_minscale": null, "auxiliary_storage_labeling_maxscale": null, "auxiliary_storage_labeling_alwaysshow": null, "auxiliary_storage_labeling_calloutdraw": null, "auxiliary_storage_labeling_labelallparts": null, "auxiliary_storage_labeling_show": null }, "geometry": { "type": "Point", "coordinates": [ -89.975127658333804, 20.6028253071925, 0.0 ] } },
{ "type": "Feature", "properties": { "id": "14", "Name": "Uman", "description": null, "timestamp": null, "begin": null, "end": null, "altitudeMode": null, "tessellate": -1, "extrude": 0, "visibility": -1, "drawOrder": null, "icon": null, "TIPO": "Estación", "TRAMO": "3", "DEMANDA": "Media", "ESQ_DE_VIA": "3 vías + 2 andenes", "ESTADO": "Yucatán", "MUNICIPIO": "Uman", "SUP_HA": 3.0, "NOM_OF": "Uman", "FUCIONAMI": "En Operación", "auxiliary_": -90.021324744212478, "auxiliar_1": 20.832323203702543, "auxiliary_storage_labeling_positionx": null, "auxiliary_storage_labeling_positiony": null, "auxiliary_storage_labeling_labelrotation": null, "auxiliary_storage_labeling_family": null, "auxiliary_storage_labeling_fontstyle": null, "auxiliary_storage_labeling_size": null, "auxiliary_storage_labeling_bold": null, "auxiliary_storage_labeling_italic": null, "auxiliary_storage_labeling_underline": null, "auxiliary_storage_labeling_color": null, "auxiliary_storage_labeling_strikeout": null, "auxiliary_storage_labeling_multilinealignment": null, "auxiliary_storage_labeling_buffersize": null, "auxiliary_storage_labeling_buffercolor": null, "auxiliary_storage_labeling_bufferdraw": null, "auxiliary_storage_labeling_labeldistance": null, "auxiliary_storage_labeling_hali": null, "auxiliary_storage_labeling_vali": null, "auxiliary_storage_labeling_scalevisibility": null, "auxiliary_storage_labeling_minscale": null, "auxiliary_storage_labeling_maxscale": null, "auxiliary_storage_labeling_alwaysshow": null, "auxiliary_storage_labeling_calloutdraw": null, "auxiliary_storage_labeling_labelallparts": null, "auxiliary_storage_labeling_show": null }, "geometry": { "type": "Point", "coordinates": [ -89.755570295048997, 20.8491138734828, 0.0 ] } },
{ "type": "Feature", "properties": { "id": "15", "Name": "Mérida Teya", "description": null, "timestamp": null, "begin": null, "end": null, "altitudeMode": null, "tessellate": -1, "extrude": 0, "visibility": -1, "drawOrder": null, "icon": null, "TIPO": "Estación", "TRAMO": "3", "DEMANDA": "Alta", "ESQ_DE_VIA": "7 vías + 4 andenes", "ESTADO": "Yucatán", "MUNICIPIO": "Kanasín", "SUP_HA": 13.8, "NOM_OF": "Mérida-Teya", "FUCIONAMI": "En Operación", "auxiliary_": -89.584292574583515, "auxiliar_1": 20.799028880217293, "auxiliary_storage_labeling_positionx": null, "auxiliary_storage_labeling_positiony": null, "auxiliary_storage_labeling_labelrotation": null, "auxiliary_storage_labeling_family": null, "auxiliary_storage_labeling_fontstyle": null, "auxiliary_storage_labeling_size": null, "auxiliary_storage_labeling_bold": null, "auxiliary_storage_labeling_italic": null, "auxiliary_storage_labeling_underline": null, "auxiliary_storage_labeling_color": null, "auxiliary_storage_labeling_strikeout": null, "auxiliary_storage_labeling_multilinealignment": null, "auxiliary_storage_labeling_buffersize": null, "auxiliary_storage_labeling_buffercolor": null, "auxiliary_storage_labeling_bufferdraw": null, "auxiliary_storage_labeling_labeldistance": null, "auxiliary_storage_labeling_hali": null, "auxiliary_storage_labeling_vali": null, "auxiliary_storage_labeling_scalevisibility": null, "auxiliary_storage_labeling_minscale": null, "auxiliary_storage_labeling_maxscale": null, "auxiliary_storage_labeling_alwaysshow": null, "auxiliary_storage_labeling_calloutdraw": null, "auxiliary_storage_labeling_labelallparts": null, "auxiliary_storage_labeling_show": null }, "geometry": { "type": "Point", "coordinates": [ -89.515185926095796, 20.929201766838201, 0.0 ] } },
{ "type": "Feature", "properties": { "id": "16", "Name": "Tixkokob", "description": null, "timestamp": null, "begin": null, "end": null, "altitudeMode": null, "tessellate": -1, "extrude": 0, "visibility": -1, "drawOrder": null, "icon": null, "TIPO": "Paradero", "TRAMO": "3", "DEMANDA": "Baja", "ESQ_DE_VIA": "4 vías + 2 andenes", "ESTADO": "Yucatán", "MUNICIPIO": "Tixkokob", "SUP_HA": 3.9, "NOM_OF": "Tixkokob", "FUCIONAMI": "En Operación", "auxiliary_": -89.552089368989613, "auxiliar_1": 21.054618852385385, "auxiliary_storage_labeling_positionx": null, "auxiliary_storage_labeling_positiony": null, "auxiliary_storage_labeling_labelrotation": null, "auxiliary_storage_labeling_family": null, "auxiliary_storage_labeling_fontstyle": null, "auxiliary_storage_labeling_size": null, "auxiliary_storage_labeling_bold": null, "auxiliary_storage_labeling_italic": null, "auxiliary_storage_labeling_underline": null, "auxiliary_storage_labeling_color": null, "auxiliary_storage_labeling_strikeout": null, "auxiliary_storage_labeling_multilinealignment": null, "auxiliary_storage_labeling_buffersize": null, "auxiliary_storage_labeling_buffercolor": null, "auxiliary_storage_labeling_bufferdraw": null, "auxiliary_storage_labeling_labeldistance": null, "auxiliary_storage_labeling_hali": null, "auxiliary_storage_labeling_vali": null, "auxiliary_storage_labeling_scalevisibility": null, "auxiliary_storage_labeling_minscale": null, "auxiliary_storage_labeling_maxscale": null, "auxiliary_storage_labeling_alwaysshow": null, "auxiliary_storage_labeling_calloutdraw": null, "auxiliary_storage_labeling_labelallparts": null, "auxiliary_storage_labeling_show": null }, "geometry": { "type": "Point", "coordinates": [ -89.395725665089003, 20.987244271438801, 0.0 ] } },
{ "type": "Feature", "properties": { "id": "17", "Name": "Izamal", "description": null, "timestamp": null, "begin": null, "end": null, "altitudeMode": null, "tessellate": -1, "extrude": 0, "visibility": -1, "drawOrder": null, "icon": null, "TIPO": "Estación", "TRAMO": "3", "DEMANDA": "Baja", "ESQ_DE_VIA": "4 vías + 2 andenes", "ESTADO": "Yucatán", "MUNICIPIO": "Izamal", "SUP_HA": 9.6, "NOM_OF": "Izamal", "FUCIONAMI": "En Operación", "auxiliary_": -89.111886646966028, "auxiliar_1": 20.984614616513269, "auxiliary_storage_labeling_positionx": null, "auxiliary_storage_labeling_positiony": null, "auxiliary_storage_labeling_labelrotation": null, "auxiliary_storage_labeling_family": null, "auxiliary_storage_labeling_fontstyle": null, "auxiliary_storage_labeling_size": null, "auxiliary_storage_labeling_bold": null, "auxiliary_storage_labeling_italic": null, "auxiliary_storage_labeling_underline": null, "auxiliary_storage_labeling_color": null, "auxiliary_storage_labeling_strikeout": null, "auxiliary_storage_labeling_multilinealignment": null, "auxiliary_storage_labeling_buffersize": null, "auxiliary_storage_labeling_buffercolor": null, "auxiliary_storage_labeling_bufferdraw": null, "auxiliary_storage_labeling_labeldistance": null, "auxiliary_storage_labeling_hali": null, "auxiliary_storage_labeling_vali": null, "auxiliary_storage_labeling_scalevisibility": null, "auxiliary_storage_labeling_minscale": null, "auxiliary_storage_labeling_maxscale": null, "auxiliary_storage_labeling_alwaysshow": null, "auxiliary_storage_labeling_calloutdraw": null, "auxiliary_storage_labeling_labelallparts": null, "auxiliary_storage_labeling_show": null }, "geometry": { "type": "Point", "coordinates": [ -89.084809697609202, 20.935924952744301, 0.0 ] } },
{ "type": "Feature", "properties": { "id": "18", "Name": "Chichén Itzá", "description": null, "timestamp": null, "begin": null, "end": null, "altitudeMode": null, "tessellate": -1, "extrude": 0, "visibility": -1, "drawOrder": null, "icon": null, "TIPO": "Estación", "TRAMO": "4", "DEMANDA": "Alta", "ESQ_DE_VIA": "4 vías + 2 andenes", "ESTADO": "Quintana Roo", "MUNICIPIO": "Tinum", "SUP_HA": 29.9, "NOM_OF": "Chichén Itzá", "FUCIONAMI": "En Operación", "auxiliary_": -88.785135401429841, "auxiliar_1": 20.789000238781323, "auxiliary_storage_labeling_positionx": null, "auxiliary_storage_labeling_positiony": null, "auxiliary_storage_labeling_labelrotation": null, "auxiliary_storage_labeling_family": null, "auxiliary_storage_labeling_fontstyle": null, "auxiliary_storage_labeling_size": null, "auxiliary_storage_labeling_bold": null, "auxiliary_storage_labeling_italic": null, "auxiliary_storage_labeling_underline": null, "auxiliary_storage_labeling_color": null, "auxiliary_storage_labeling_strikeout": null, "auxiliary_storage_labeling_multilinealignment": null, "auxiliary_storage_labeling_buffersize": null, "auxiliary_storage_labeling_buffercolor": null, "auxiliary_storage_labeling_bufferdraw": null, "auxiliary_storage_labeling_labeldistance": null, "auxiliary_storage_labeling_hali": null, "auxiliary_storage_labeling_vali": null, "auxiliary_storage_labeling_scalevisibility": null, "auxiliary_storage_labeling_minscale": null, "auxiliary_storage_labeling_maxscale": null, "auxiliary_storage_labeling_alwaysshow": null, "auxiliary_storage_labeling_calloutdraw": null, "auxiliary_storage_labeling_labelallparts": null, "auxiliary_storage_labeling_show": null }, "geometry": { "type": "Point", "coordinates": [ -88.548656889541505, 20.7218598903711, 0.0 ] } },
{ "type": "Feature", "properties": { "id": "19", "Name": "Valladolid", "description": null, "timestamp": null, "begin": null, "end": null, "altitudeMode": null, "tessellate": -1, "extrude": 0, "visibility": -1, "drawOrder": null, "icon": null, "TIPO": "Estación", "TRAMO": "4", "DEMANDA": "Intermedia", "ESQ_DE_VIA": "4 vías + 2 andenes", "ESTADO": "Quintana Roo", "MUNICIPIO": "Valladolid", "SUP_HA": 4.9, "NOM_OF": "Valladolid", "FUCIONAMI": "En Operación", "auxiliary_": -88.197809795761927, "auxiliar_1": 20.604820501981312, "auxiliary_storage_labeling_positionx": null, "auxiliary_storage_labeling_positiony": null, "auxiliary_storage_labeling_labelrotation": null, "auxiliary_storage_labeling_family": null, "auxiliary_storage_labeling_fontstyle": null, "auxiliary_storage_labeling_size": null, "auxiliary_storage_labeling_bold": null, "auxiliary_storage_labeling_italic": null, "auxiliary_storage_labeling_underline": null, "auxiliary_storage_labeling_color": null, "auxiliary_storage_labeling_strikeout": null, "auxiliary_storage_labeling_multilinealignment": null, "auxiliary_storage_labeling_buffersize": null, "auxiliary_storage_labeling_buffercolor": null, "auxiliary_storage_labeling_bufferdraw": null, "auxiliary_storage_labeling_labeldistance": null, "auxiliary_storage_labeling_hali": null, "auxiliary_storage_labeling_vali": null, "auxiliary_storage_labeling_scalevisibility": null, "auxiliary_storage_labeling_minscale": null, "auxiliary_storage_labeling_maxscale": null, "auxiliary_storage_labeling_alwaysshow": null, "auxiliary_storage_labeling_calloutdraw": null, "auxiliary_storage_labeling_labelallparts": null, "auxiliary_storage_labeling_show": null }, "geometry": { "type": "Point", "coordinates": [ -88.194464891212405, 20.7404414747838, 0.0 ] } },
{ "type": "Feature", "properties": { "id": "20", "Name": "Nuevo Xcán", "description": null, "timestamp": null, "begin": null, "end": null, "altitudeMode": null, "tessellate": -1, "extrude": 0, "visibility": -1, "drawOrder": null, "icon": null, "TIPO": "Paradero", "TRAMO": "4", "DEMANDA": "Baja", "ESQ_DE_VIA": "4 vías + 2 andenes", "ESTADO": "Quintana Roo", "MUNICIPIO": "Lázaro Cárdenas", "SUP_HA": 11.5, "NOM_OF": "Nuevo Xcán", "FUCIONAMI": "En Operación", "auxiliary_": -88.013140272894859, "auxiliar_1": 20.949340785417196, "auxiliary_storage_labeling_positionx": null, "auxiliary_storage_labeling_positiony": null, "auxiliary_storage_labeling_labelrotation": null, "auxiliary_storage_labeling_family": null, "auxiliary_storage_labeling_fontstyle": null, "auxiliary_storage_labeling_size": null, "auxiliary_storage_labeling_bold": null, "auxiliary_storage_labeling_italic": null, "auxiliary_storage_labeling_underline": null, "auxiliary_storage_labeling_color": null, "auxiliary_storage_labeling_strikeout": null, "auxiliary_storage_labeling_multilinealignment": null, "auxiliary_storage_labeling_buffersize": null, "auxiliary_storage_labeling_buffercolor": null, "auxiliary_storage_labeling_bufferdraw": null, "auxiliary_storage_labeling_labeldistance": null, "auxiliary_storage_labeling_hali": null, "auxiliary_storage_labeling_vali": null, "auxiliary_storage_labeling_scalevisibility": null, "auxiliary_storage_labeling_minscale": null, "auxiliary_storage_labeling_maxscale": null, "auxiliary_storage_labeling_alwaysshow": null, "auxiliary_storage_labeling_calloutdraw": null, "auxiliary_storage_labeling_labelallparts": null, "auxiliary_storage_labeling_show": null }, "geometry": { "type": "Point", "coordinates": [ -87.602342405860796, 20.8784555596826, 0.0 ] } },
{ "type": "Feature", "properties": { "id": "21", "Name": "Leona Vicario", "description": null, "timestamp": null, "begin": null, "end": null, "altitudeMode": null, "tessellate": -1, "extrude": 0, "visibility": -1, "drawOrder": null, "icon": null, "TIPO": "Paradero", "TRAMO": "4", "DEMANDA": "Baja", "ESQ_DE_VIA": "4 vías + 2 andenes", "ESTADO": "Quintana Roo", "MUNICIPIO": "Puerto Morelos", "SUP_HA": 3.4, "NOM_OF": "Leona Vicario", "FUCIONAMI": "En Operación", "auxiliary_": -87.570958180276918, "auxiliar_1": 21.085405340433567, "auxiliary_storage_labeling_positionx": null, "auxiliary_storage_labeling_positiony": null, "auxiliary_storage_labeling_labelrotation": null, "auxiliary_storage_labeling_family": null, "auxiliary_storage_labeling_fontstyle": null, "auxiliary_storage_labeling_size": null, "auxiliary_storage_labeling_bold": null, "auxiliary_storage_labeling_italic": null, "auxiliary_storage_labeling_underline": null, "auxiliary_storage_labeling_color": null, "auxiliary_storage_labeling_strikeout": null, "auxiliary_storage_labeling_multilinealignment": null, "auxiliary_storage_labeling_buffersize": null, "auxiliary_storage_labeling_buffercolor": null, "auxiliary_storage_labeling_bufferdraw": null, "auxiliary_storage_labeling_labeldistance": null, "auxiliary_storage_labeling_hali": null, "auxiliary_storage_labeling_vali": null, "auxiliary_storage_labeling_scalevisibility": null, "auxiliary_storage_labeling_minscale": null, "auxiliary_storage_labeling_maxscale": null, "auxiliary_storage_labeling_alwaysshow": null, "auxiliary_storage_labeling_calloutdraw": null, "auxiliary_storage_labeling_labelallparts": null, "auxiliary_storage_labeling_show": null }, "geometry": { "type": "Point", "coordinates": [ -87.196428678015295, 20.9797684493487, 0.0 ] } },
{ "type": "Feature", "properties": { "id": "22", "Name": "Cancún Aeropuerto", "description": null, "timestamp": null, "begin": null, "end": null, "altitudeMode": null, "tessellate": -1, "extrude": 0, "visibility": -1, "drawOrder": null, "icon": null, "TIPO": "Estación", "TRAMO": "4", "DEMANDA": "Alta", "ESQ_DE_VIA": "Fondo de saco. 10 vías + 5 andenes", "ESTADO": "Quintana Roo", "MUNICIPIO": "Benito Juárez", "SUP_HA": 191.7, "NOM_OF": "Cancún", "FUCIONAMI": "En Operación", "auxiliary_": -86.81364301771265, "auxiliar_1": 20.971356827671869, "auxiliary_storage_labeling_positionx": null, "auxiliary_storage_labeling_positiony": null, "auxiliary_storage_labeling_labelrotation": null, "auxiliary_storage_labeling_family": null, "auxiliary_storage_labeling_fontstyle": null, "auxiliary_storage_labeling_size": null, "auxiliary_storage_labeling_bold": null, "auxiliary_storage_labeling_italic": null, "auxiliary_storage_labeling_underline": null, "auxiliary_storage_labeling_color": null, "auxiliary_storage_labeling_strikeout": null, "auxiliary_storage_labeling_multilinealignment": null, "auxiliary_storage_labeling_buffersize": null, "auxiliary_storage_labeling_buffercolor": null, "auxiliary_storage_labeling_bufferdraw": null, "auxiliary_storage_labeling_labeldistance": null, "auxiliary_storage_labeling_hali": null, "auxiliary_storage_labeling_vali": null, "auxiliary_storage_labeling_scalevisibility": null, "auxiliary_storage_labeling_minscale": null, "auxiliary_storage_labeling_maxscale": null, "auxiliary_storage_labeling_alwaysshow": null, "auxiliary_storage_labeling_calloutdraw": null, "auxiliary_storage_labeling_labelallparts": null, "auxiliary_storage_labeling_show": null }, "geometry": { "type": "Point", "coordinates": [ -86.872727403590403, 21.028236904191399, 0.0 ] } },
{ "type": "Feature", "properties": { "id": "23", "Name": "Puerto Morelos", "description": null, "timestamp": null, "begin": null, "end": null, "altitudeMode": null, "tessellate": -1, "extrude": 0, "visibility": -1, "drawOrder": null, "icon": null, "TIPO": "Estación", "TRAMO": "5 Norte", "DEMANDA": "Intermedia", "ESQ_DE_VIA": "4 vías + 2 andenes", "ESTADO": "Quintana Roo", "MUNICIPIO": "Puerto Morelos", "SUP_HA": 9.2, "NOM_OF": "Puerto Morelos", "FUCIONAMI": "En Operación", "auxiliary_": -86.895388587396667, "auxiliar_1": 20.817832100065331, "auxiliary_storage_labeling_positionx": null, "auxiliary_storage_labeling_positiony": null, "auxiliary_storage_labeling_labelrotation": null, "auxiliary_storage_labeling_family": null, "auxiliary_storage_labeling_fontstyle": null, "auxiliary_storage_labeling_size": null, "auxiliary_storage_labeling_bold": null, "auxiliary_storage_labeling_italic": null, "auxiliary_storage_labeling_underline": null, "auxiliary_storage_labeling_color": null, "auxiliary_storage_labeling_strikeout": null, "auxiliary_storage_labeling_multilinealignment": null, "auxiliary_storage_labeling_buffersize": null, "auxiliary_storage_labeling_buffercolor": null, "auxiliary_storage_labeling_bufferdraw": null, "auxiliary_storage_labeling_labeldistance": null, "auxiliary_storage_labeling_hali": null, "auxiliary_storage_labeling_vali": null, "auxiliary_storage_labeling_scalevisibility": null, "auxiliary_storage_labeling_minscale": null, "auxiliary_storage_labeling_maxscale": null, "auxiliary_storage_labeling_alwaysshow": null, "auxiliary_storage_labeling_calloutdraw": null, "auxiliary_storage_labeling_labelallparts": null, "auxiliary_storage_labeling_show": null }, "geometry": { "type": "Point", "coordinates": [ -86.948850312707094, 20.853304696731001, 0.0 ] } },
{ "type": "Feature", "properties": { "id": "24", "Name": "Playa del Carmen", "description": null, "timestamp": null, "begin": null, "end": null, "altitudeMode": null, "tessellate": -1, "extrude": 0, "visibility": -1, "drawOrder": null, "icon": null, "TIPO": "Estación", "TRAMO": "5 Sur", "DEMANDA": "Alta", "ESQ_DE_VIA": "4 vías + 2 andenes", "ESTADO": "Quintana Roo", "MUNICIPIO": "Solidaridad", "SUP_HA": 15.0, "NOM_OF": "Playa del Carmen", "FUCIONAMI": "En Operación", "auxiliary_": -87.04543017100174, "auxiliar_1": 20.619063885011897, "auxiliary_storage_labeling_positionx": null, "auxiliary_storage_labeling_positiony": null, "auxiliary_storage_labeling_labelrotation": null, "auxiliary_storage_labeling_family": null, "auxiliary_storage_labeling_fontstyle": null, "auxiliary_storage_labeling_size": null, "auxiliary_storage_labeling_bold": null, "auxiliary_storage_labeling_italic": null, "auxiliary_storage_labeling_underline": null, "auxiliary_storage_labeling_color": null, "auxiliary_storage_labeling_strikeout": null, "auxiliary_storage_labeling_multilinealignment": null, "auxiliary_storage_labeling_buffersize": null, "auxiliary_storage_labeling_buffercolor": null, "auxiliary_storage_labeling_bufferdraw": null, "auxiliary_storage_labeling_labeldistance": null, "auxiliary_storage_labeling_hali": null, "auxiliary_storage_labeling_vali": null, "auxiliary_storage_labeling_scalevisibility": null, "auxiliary_storage_labeling_minscale": null, "auxiliary_storage_labeling_maxscale": null, "auxiliary_storage_labeling_alwaysshow": null, "auxiliary_storage_labeling_calloutdraw": null, "auxiliary_storage_labeling_labelallparts": null, "auxiliary_storage_labeling_show": null }, "geometry": { "type": "Point", "coordinates": [ -87.117093627338605, 20.678587276938298, 0.0 ] } },
{ "type": "Feature", "properties": { "id": "25", "Name": "Tulum", "description": null, "timestamp": null, "begin": null, "end": null, "altitudeMode": null, "tessellate": -1, "extrude": 0, "visibility": -1, "drawOrder": null, "icon": null, "TIPO": "Estación", "TRAMO": "5 Sur", "DEMANDA": "Alta", "ESQ_DE_VIA": "5 vías + 2 andenes", "ESTADO": "Quintana Roo", "MUNICIPIO": "Tulum", "SUP_HA": 9.8, "NOM_OF": "Tulum", "FUCIONAMI": null, "auxiliary_": -87.396001843699636, "auxiliar_1": 20.189616090816813, "auxiliary_storage_labeling_positionx": null, "auxiliary_storage_labeling_positiony": null, "auxiliary_storage_labeling_labelrotation": null, "auxiliary_storage_labeling_family": null, "auxiliary_storage_labeling_fontstyle": null, "auxiliary_storage_labeling_size": null, "auxiliary_storage_labeling_bold": null, "auxiliary_storage_labeling_italic": null, "auxiliary_storage_labeling_underline": null, "auxiliary_storage_labeling_color": null, "auxiliary_storage_labeling_strikeout": null, "auxiliary_storage_labeling_multilinealignment": null, "auxiliary_storage_labeling_buffersize": null, "auxiliary_storage_labeling_buffercolor": null, "auxiliary_storage_labeling_bufferdraw": null, "auxiliary_storage_labeling_labeldistance": null, "auxiliary_storage_labeling_hali": null, "auxiliary_storage_labeling_vali": null, "auxiliary_storage_labeling_scalevisibility": null, "auxiliary_storage_labeling_minscale": null, "auxiliary_storage_labeling_maxscale": null, "auxiliary_storage_labeling_alwaysshow": null, "auxiliary_storage_labeling_calloutdraw": null, "auxiliary_storage_labeling_labelallparts": null, "auxiliary_storage_labeling_show": null }, "geometry": { "type": "Point", "coordinates": [ -87.454035704086394, 20.246747840780799, 0.0 ] } },
{ "type": "Feature", "properties": { "id": "26", "Name": "Tulum Aeropuerto", "description": null, "timestamp": null, "begin": null, "end": null, "altitudeMode": null, "tessellate": -1, "extrude": 0, "visibility": -1, "drawOrder": null, "icon": null, "TIPO": "Estación", "TRAMO": "6", "DEMANDA": "Intermedia", "ESQ_DE_VIA": "Por confirmar con SEDENA", "ESTADO": "Quintana Roo", "MUNICIPIO": "Tulum", "SUP_HA": 1191.9, "NOM_OF": "Tulum Aeropuerto", "FUCIONAMI": null, "auxiliary_": -87.584924750751838, "auxiliar_1": 20.095255573112905, "auxiliary_storage_labeling_positionx": null, "auxiliary_storage_labeling_positiony": null, "auxiliary_storage_labeling_labelrotation": null, "auxiliary_storage_labeling_family": null, "auxiliary_storage_labeling_fontstyle": null, "auxiliary_storage_labeling_size": null, "auxiliary_storage_labeling_bold": null, "auxiliary_storage_labeling_italic": null, "auxiliary_storage_labeling_underline": null, "auxiliary_storage_labeling_color": null, "auxiliary_storage_labeling_strikeout": null, "auxiliary_storage_labeling_multilinealignment": null, "auxiliary_storage_labeling_buffersize": null, "auxiliary_storage_labeling_buffercolor": null, "auxiliary_storage_labeling_bufferdraw": null, "auxiliary_storage_labeling_labeldistance": null, "auxiliary_storage_labeling_hali": null, "auxiliary_storage_labeling_vali": null, "auxiliary_storage_labeling_scalevisibility": null, "auxiliary_storage_labeling_minscale": null, "auxiliary_storage_labeling_maxscale": null, "auxiliary_storage_labeling_alwaysshow": null, "auxiliary_storage_labeling_calloutdraw": null, "auxiliary_storage_labeling_labelallparts": null, "auxiliary_storage_labeling_show": null }, "geometry": { "type": "Point", "coordinates": [ -87.640166329448604, 20.1517403042536, 0.0 ] } },
{ "type": "Feature", "properties": { "id": "27", "Name": "F.C. Puerto", "description": null, "timestamp": null, "begin": null, "end": null, "altitudeMode": null, "tessellate": -1, "extrude": 0, "visibility": -1, "drawOrder": null, "icon": null, "TIPO": "Estación", "TRAMO": "6", "DEMANDA": "Intermedia", "ESQ_DE_VIA": "4 vías + 2 andenes", "ESTADO": "Quintana Roo", "MUNICIPIO": "F.C. Puerto", "SUP_HA": 33.8, "NOM_OF": "Felipe Carillo Puerto", "FUCIONAMI": null, "auxiliary_": -88.002049409825673, "auxiliar_1": 19.486140648289268, "auxiliary_storage_labeling_positionx": null, "auxiliary_storage_labeling_positiony": null, "auxiliary_storage_labeling_labelrotation": null, "auxiliary_storage_labeling_family": null, "auxiliary_storage_labeling_fontstyle": null, "auxiliary_storage_labeling_size": null, "auxiliary_storage_labeling_bold": null, "auxiliary_storage_labeling_italic": null, "auxiliary_storage_labeling_underline": null, "auxiliary_storage_labeling_color": null, "auxiliary_storage_labeling_strikeout": null, "auxiliary_storage_labeling_multilinealignment": null, "auxiliary_storage_labeling_buffersize": null, "auxiliary_storage_labeling_buffercolor": null, "auxiliary_storage_labeling_bufferdraw": null, "auxiliary_storage_labeling_labeldistance": null, "auxiliary_storage_labeling_hali": null, "auxiliary_storage_labeling_vali": null, "auxiliary_storage_labeling_scalevisibility": null, "auxiliary_storage_labeling_minscale": null, "auxiliary_storage_labeling_maxscale": null, "auxiliary_storage_labeling_alwaysshow": null, "auxiliary_storage_labeling_calloutdraw": null, "auxiliary_storage_labeling_labelallparts": null, "auxiliary_storage_labeling_show": 0 }, "geometry": { "type": "Point", "coordinates": [ -88.071644548, 19.58863718, 0.0 ] } },
{ "type": "Feature", "properties": { "id": "28", "Name": "Limones", "description": null, "timestamp": null, "begin": null, "end": null, "altitudeMode": null, "tessellate": -1, "extrude": 0, "visibility": -1, "drawOrder": null, "icon": null, "TIPO": "Paradero", "TRAMO": "6", "DEMANDA": "Baja", "ESQ_DE_VIA": "4 vías + 2 andenes", "ESTADO": "Quintana Roo", "MUNICIPIO": "Bacalar", "SUP_HA": 2.9, "NOM_OF": "Limones-Chacchoben", "FUCIONAMI": null, "auxiliary_": -88.055572978711965, "auxiliar_1": 19.012517262290373, "auxiliary_storage_labeling_positionx": null, "auxiliary_storage_labeling_positiony": null, "auxiliary_storage_labeling_labelrotation": null, "auxiliary_storage_labeling_family": null, "auxiliary_storage_labeling_fontstyle": null, "auxiliary_storage_labeling_size": null, "auxiliary_storage_labeling_bold": null, "auxiliary_storage_labeling_italic": null, "auxiliary_storage_labeling_underline": null, "auxiliary_storage_labeling_color": null, "auxiliary_storage_labeling_strikeout": null, "auxiliary_storage_labeling_multilinealignment": null, "auxiliary_storage_labeling_buffersize": null, "auxiliary_storage_labeling_buffercolor": null, "auxiliary_storage_labeling_bufferdraw": null, "auxiliary_storage_labeling_labeldistance": null, "auxiliary_storage_labeling_hali": null, "auxiliary_storage_labeling_vali": null, "auxiliary_storage_labeling_scalevisibility": null, "auxiliary_storage_labeling_minscale": null, "auxiliary_storage_labeling_maxscale": null, "auxiliary_storage_labeling_alwaysshow": null, "auxiliary_storage_labeling_calloutdraw": null, "auxiliary_storage_labeling_labelallparts": null, "auxiliary_storage_labeling_show": null }, "geometry": { "type": "Point", "coordinates": [ -88.118203408459195, 19.030049699358798, 0.0 ] } },
{ "type": "Feature", "properties": { "id": "29", "Name": "Bacalar", "description": null, "timestamp": null, "begin": null, "end": null, "altitudeMode": null, "tessellate": -1, "extrude": 0, "visibility": -1, "drawOrder": null, "icon": null, "TIPO": "Estación", "TRAMO": "6", "DEMANDA": "Intermedia", "ESQ_DE_VIA": "4 vías + 2 andenes", "ESTADO": "Quintana Roo", "MUNICIPIO": "Bacalar", "SUP_HA": 7.9, "NOM_OF": "Bacalar", "FUCIONAMI": null, "auxiliary_": -88.738718365288065, "auxiliar_1": 18.765106511468293, "auxiliary_storage_labeling_positionx": null, "auxiliary_storage_labeling_positiony": null, "auxiliary_storage_labeling_labelrotation": null, "auxiliary_storage_labeling_family": null, "auxiliary_storage_labeling_fontstyle": null, "auxiliary_storage_labeling_size": null, "auxiliary_storage_labeling_bold": null, "auxiliary_storage_labeling_italic": null, "auxiliary_storage_labeling_underline": null, "auxiliary_storage_labeling_color": null, "auxiliary_storage_labeling_strikeout": null, "auxiliary_storage_labeling_multilinealignment": null, "auxiliary_storage_labeling_buffersize": null, "auxiliary_storage_labeling_buffercolor": null, "auxiliary_storage_labeling_bufferdraw": null, "auxiliary_storage_labeling_labeldistance": null, "auxiliary_storage_labeling_hali": null, "auxiliary_storage_labeling_vali": null, "auxiliary_storage_labeling_scalevisibility": null, "auxiliary_storage_labeling_minscale": null, "auxiliary_storage_labeling_maxscale": null, "auxiliary_storage_labeling_alwaysshow": null, "auxiliary_storage_labeling_calloutdraw": null, "auxiliary_storage_labeling_labelallparts": null, "auxiliary_storage_labeling_show": null }, "geometry": { "type": "Point", "coordinates": [ -88.395770732, 18.710509393, 0.0 ] } },
{ "type": "Feature", "properties": { "id": "30", "Name": "Chetumal Aeropuerto", "description": null, "timestamp": null, "begin": null, "end": null, "altitudeMode": null, "tessellate": -1, "extrude": 0, "visibility": -1, "drawOrder": null, "icon": null, "TIPO": "Estación", "TRAMO": "6", "DEMANDA": "Alta", "ESQ_DE_VIA": "Fondo de saco. 4 vías + 2 andenes", "ESTADO": "Quintana Roo", "MUNICIPIO": "Othón P. Blanco", "SUP_HA": 4.4, "NOM_OF": "Chetumal", "FUCIONAMI": null, "auxiliary_": -88.484765536624167, "auxiliar_1": 18.377491320164481, "auxiliary_storage_labeling_positionx": null, "auxiliary_storage_labeling_positiony": null, "auxiliary_storage_labeling_labelrotation": null, "auxiliary_storage_labeling_family": null, "auxiliary_storage_labeling_fontstyle": null, "auxiliary_storage_labeling_size": null, "auxiliary_storage_labeling_bold": null, "auxiliary_storage_labeling_italic": null, "auxiliary_storage_labeling_underline": null, "auxiliary_storage_labeling_color": null, "auxiliary_storage_labeling_strikeout": null, "auxiliary_storage_labeling_multilinealignment": null, "auxiliary_storage_labeling_buffersize": null, "auxiliary_storage_labeling_buffercolor": null, "auxiliary_storage_labeling_bufferdraw": null, "auxiliary_storage_labeling_labeldistance": null, "auxiliary_storage_labeling_hali": null, "auxiliary_storage_labeling_vali": null, "auxiliary_storage_labeling_scalevisibility": null, "auxiliary_storage_labeling_minscale": null, "auxiliary_storage_labeling_maxscale": null, "auxiliary_storage_labeling_alwaysshow": null, "auxiliary_storage_labeling_calloutdraw": null, "auxiliary_storage_labeling_labelallparts": null, "auxiliary_storage_labeling_show": null }, "geometry": { "type": "Point", "coordinates": [ -88.324992307791106, 18.502686723306301, 0.0 ] } },
{ "type": "Feature", "properties": { "id": "31", "Name": "Nicolas Bravo", "description": null, "timestamp": null, "begin": null, "end": null, "altitudeMode": null, "tessellate": -1, "extrude": 0, "visibility": -1, "drawOrder": null, "icon": null, "TIPO": "Paradero", "TRAMO": "7", "DEMANDA": "Baja", "ESQ_DE_VIA": "3 vías + 2 andenes", "ESTADO": "Campeche", "MUNICIPIO": "Othón P. Blanco", "SUP_HA": 2.0, "NOM_OF": "Nicolas Bravo-Kohunlich", "FUCIONAMI": null, "auxiliary_": -89.251006851217468, "auxiliar_1": 18.261859966286774, "auxiliary_storage_labeling_positionx": null, "auxiliary_storage_labeling_positiony": null, "auxiliary_storage_labeling_labelrotation": null, "auxiliary_storage_labeling_family": null, "auxiliary_storage_labeling_fontstyle": null, "auxiliary_storage_labeling_size": null, "auxiliary_storage_labeling_bold": null, "auxiliary_storage_labeling_italic": null, "auxiliary_storage_labeling_underline": null, "auxiliary_storage_labeling_color": null, "auxiliary_storage_labeling_strikeout": null, "auxiliary_storage_labeling_multilinealignment": null, "auxiliary_storage_labeling_buffersize": null, "auxiliary_storage_labeling_buffercolor": null, "auxiliary_storage_labeling_bufferdraw": null, "auxiliary_storage_labeling_labeldistance": null, "auxiliary_storage_labeling_hali": null, "auxiliary_storage_labeling_vali": null, "auxiliary_storage_labeling_scalevisibility": null, "auxiliary_storage_labeling_minscale": null, "auxiliary_storage_labeling_maxscale": null, "auxiliary_storage_labeling_alwaysshow": null, "auxiliary_storage_labeling_calloutdraw": null, "auxiliary_storage_labeling_labelallparts": null, "auxiliary_storage_labeling_show": null }, "geometry": { "type": "Point", "coordinates": [ -88.957055826, 18.457982786000098, 0.0 ] } },
{ "type": "Feature", "properties": { "id": "32", "Name": "Xpujil", "description": null, "timestamp": null, "begin": null, "end": null, "altitudeMode": null, "tessellate": -1, "extrude": 0, "visibility": -1, "drawOrder": null, "icon": null, "TIPO": "Estación", "TRAMO": "7", "DEMANDA": "Baja", "ESQ_DE_VIA": "3 vías + 2 andenes", "ESTADO": "Campeche", "MUNICIPIO": "Calakmul", "SUP_HA": 9.9, "NOM_OF": "Xpujil", "FUCIONAMI": null, "auxiliary_": -89.636660259611418, "auxiliar_1": 18.596479676853534, "auxiliary_storage_labeling_positionx": null, "auxiliary_storage_labeling_positiony": null, "auxiliary_storage_labeling_labelrotation": null, "auxiliary_storage_labeling_family": null, "auxiliary_storage_labeling_fontstyle": null, "auxiliary_storage_labeling_size": null, "auxiliary_storage_labeling_bold": null, "auxiliary_storage_labeling_italic": null, "auxiliary_storage_labeling_underline": null, "auxiliary_storage_labeling_color": null, "auxiliary_storage_labeling_strikeout": null, "auxiliary_storage_labeling_multilinealignment": null, "auxiliary_storage_labeling_buffersize": null, "auxiliary_storage_labeling_buffercolor": null, "auxiliary_storage_labeling_bufferdraw": null, "auxiliary_storage_labeling_labeldistance": null, "auxiliary_storage_labeling_hali": null, "auxiliary_storage_labeling_vali": null, "auxiliary_storage_labeling_scalevisibility": null, "auxiliary_storage_labeling_minscale": null, "auxiliary_storage_labeling_maxscale": null, "auxiliary_storage_labeling_alwaysshow": null, "auxiliary_storage_labeling_calloutdraw": null, "auxiliary_storage_labeling_labelallparts": null, "auxiliary_storage_labeling_show": null }, "geometry": { "type": "Point", "coordinates": [ -89.399127928297204, 18.527138335039201, 0.0 ] } },
{ "type": "Feature", "properties": { "id": "33", "Name": "Calakmul", "description": null, "timestamp": null, "begin": null, "end": null, "altitudeMode": null, "tessellate": -1, "extrude": 0, "visibility": -1, "drawOrder": null, "icon": null, "TIPO": "Paradero", "TRAMO": "7", "DEMANDA": "Baja", "ESQ_DE_VIA": "3 vías + 2 andenes", "ESTADO": "Campeche", "MUNICIPIO": "Calakmul", "SUP_HA": 10.3, "NOM_OF": "Calakmul", "FUCIONAMI": null, "auxiliary_": -90.07007890827029, "auxiliar_1": 18.425053314764344, "auxiliary_storage_labeling_positionx": null, "auxiliary_storage_labeling_positiony": null, "auxiliary_storage_labeling_labelrotation": null, "auxiliary_storage_labeling_family": null, "auxiliary_storage_labeling_fontstyle": null, "auxiliary_storage_labeling_size": null, "auxiliary_storage_labeling_bold": null, "auxiliary_storage_labeling_italic": null, "auxiliary_storage_labeling_underline": null, "auxiliary_storage_labeling_color": null, "auxiliary_storage_labeling_strikeout": null, "auxiliary_storage_labeling_multilinealignment": null, "auxiliary_storage_labeling_buffersize": null, "auxiliary_storage_labeling_buffercolor": null, "auxiliary_storage_labeling_bufferdraw": null, "auxiliary_storage_labeling_labeldistance": null, "auxiliary_storage_labeling_hali": null, "auxiliary_storage_labeling_vali": null, "auxiliary_storage_labeling_scalevisibility": null, "auxiliary_storage_labeling_minscale": null, "auxiliary_storage_labeling_maxscale": null, "auxiliary_storage_labeling_alwaysshow": null, "auxiliary_storage_labeling_calloutdraw": null, "auxiliary_storage_labeling_labelallparts": null, "auxiliary_storage_labeling_show": null }, "geometry": { "type": "Point", "coordinates": [ -89.904244545040399, 18.531902786962402, 0.0 ] } }
]
}
